Name,Address,City,State,Zip,Phone,Notes,Membership
99 Ranch,10780 Fairfax Boulevard,Fairfax,VA,22030,571-616-8899,Asian,
Aldi,720 Cabela Drive,Bristol,VA,24202,,,
Aldi,2265 N Franklin Street,Christiansburg,VA,24073,,,
Aldi,1521 Hershberger Road NW,Roanoke,VA,24012,704-727-2755,,
Aldi,2617 Lakeside Drive,Lynchburg,VA,24501,,,
Aldi,841 Shenandoah Village Drive,Waynesboro,VA,22980,833-480-1055,,
Aldi,113 George Cochran Parkway,Staunton,VA,24401,833-480-1029,,
Aldi,1990 Country Club Road,Harrisonburg,VA,22802,833-480-1031,,
Aldi,7500 Harpers Green Way,Chesterfield,VA,23832,833-480-1065,,
Aldi,12431 Hull Street Road,Midlothian,VA,23112,833-480-1058,,
Aldi,14381 Winterview Parkway,Midlothian,VA,23113,804-201-9075,,
Aldi,12390 West Broad Street,Henrico,VA,23233,855-480-1010,,
Aldi,1670 Mall Drive,North Chesterfield,VA,23235,833-480-1006,,
Aldi,1776 North Parham Road,Henrico,VA,23229,833-480-1057,,
Aldi,7319 Forest Hill Avenue,Richmond,VA,23225,833-480-1022,,
Aldi,11100 Iron Bridge Road,Chesterfield,VA,23831,833-480-1014,,
Aldi,6295 West Broad Street,Richmond,VA,23230,833-480-1004,,
Aldi,8951 Staples Mill Road,Henrico,VA,23228,833-480-1002,,
Aldi,927 Myers Street,Richmond,VA,23230,833-480-1007,,
Aldi,465 Charles Dimmock Parkway,Colonial Heights,VA,23834,833-480-1056,,
Aldi,7003 Mechanicsville Turnpike,Mechanicsville,VA,23111,833-480-1021,,
Aldi,1504 Richmond Road,Williamsburg,VA,23185,833-480-1023,,
Aldi,7176 George Washington Memorial Highway,Gloucester,VA,23061,833-480-1028,,
Aldi,549 Bland Boulevard,Newport News,VA,23602,833-480-1011,,
Aldi,11975 Jefferson Avenue,Newport News,VA,23606,833-480-1017,,
Aldi,1920 N Main Street,Suffolk,VA,23434,833-480-1063,,
Aldi,1980 Saville Row,Hampton,VA,23666,833-480-1026,,
Aldi,4107 Portsmouth Boulevard,Chesapeake,VA,23321,833-480-1012,,
Aldi,5811 West High Street,Portsmouth,VA,23703,833-480-1008,,
Aldi,730 West 21st Street,Norfolk,VA,23517,804-201-9075,,
Aldi,1269 Cedar Road,Chesapeake,VA,23322,833-480-1024,,
Aldi,1050 N Military Highway,Norfolk,VA,23502,804-201-9075,,
Aldi,1256 Executive Boulevard,Chesapeake,VA,23320,833-480-1052,,
Aldi,4803 Shore Drive,Virginia Beach,VA,23455,833-480-1025,,
Aldi,1436 Kempsville Road,Virginia Beach,VA,23464,833-480-1016,,
Aldi,322 Thalia Road,Virginia Beach,VA,23452,833-480-1061,,
Aldi,764 Chantry Drive,Virginia Beach,VA,23452,833-480-1030,,
Aldi,929 First Colonial Road,Virginia Beach,VA,23454,833-480-1062,,
Aldi,1577 General Booth Boulevard,Virginia Beach,VA,23454,804-201-9075,,
Aldi,134 Riverton Commons Drive,Front Royal,VA,22630,301-363-0830,,
Aldi,221 Kernstown Commons Boulevard,Winchester,VA,22602,301-363-0830,,
Aldi,5099 Jefferson Davis Highway,Fredericksburg,VA,22408,833-480-1005,,
Aldi,15179 Montanus Drive,Culpeper,VA,22701,833-480-1009,,
Aldi,4173 Plank Road,Fredericksburg,VA,22407,833-480-1015,,
Aldi,1030 Warrenton Road,Fredericksburg,VA,22406,833-480-1013,,
Aldi,263 Garrisonville Road,Stafford,VA,22554,833-480-1003,,
Aldi,17010 Jefferson Davis Highway,Dumfries,VA,22026,301-363-0830,,
Aldi,13782 Smoketown Road,Woodbridge,VA,22192,301-363-0830,,
Aldi,9714 Liberia Avenue,Manassas,VA,20110,301-363-0830,,
Aldi,10294 Portsmouth Road,Manassas,VA,20109,301-363-0830,,
Aldi,13291 Gordon Boulevard,Woodbridge,VA,22191,301-363-0830,,
Aldi,13033 Fair Lakes Shopping Center,Fairfax,VA,22033,,,
Aldi,13920 Lee Jackson Memorial Highway,Chantilly,VA,20151,301-363-0830,,
Aldi,11001 Lee Highway,Fairfax,VA,22030,301-363-0830,,
Aldi,6129 Backlick Road,Springfield,VA,22150,301-363-0830,,
Aldi,8256 Richmond Highway,Alexandria,VA,22309,301-363-0830,,
Aldi,6001 Kingstowne Village Parkway,Alexandria,VA,22315,301-363-0830,,
Aldi,7006 Columbia Pike,Annandale,VA,22003,301-363-0830,,
Aldi,8100A Arlington Boulevard,Falls Church,VA,22042,,,
Aldi,4580 Duke Street,Alexandria,VA,22304,301-363-0830,,
Aldi,4602 Kenmore Avenue,Alexandria,VA,22304,301-363-0830,,
Aldi,155 Hillwood Avenue,Falls Church,VA,22046,301-363-0830,,
Aldi,5725 Columbia Pike,Falls Church,VA,22041,301-363-0830,,
Aldi,425 E. Monroe Avenue,Alexandria,VA,22301,301-363-0830,,
Aldi,21031 Tripleseven Road,Sterling,VA,20165,301-363-0830,,
Aldi,24330 Liberty Harvest Court,Sterling,VA,20166,301-363-0830,,
Aldi,43150 Broadlands Center Plaza,Ashburg,VA,20148,,,
Aldi,125 Robinson Mill Plaza,Leesburg,VA,20176,301-363-0830,,
Aldi,388 Commonwealth Boulevard,Martinsville,VA,24112,704-727-2755,,
Aldi,3465 Riverside Drive,Danville,VA,24541,704-272-2755,,
Americana Grocery,6128 Columbia Pike,Falls Church,VA,22041,703-671-9625,Latin,
Americana Grocery,10897 Main Street,Fairfax,VA,22030,,Latin,
Americana Grocery,11428 Jefferson Davis Highway,Woodbridge,VA,22191,571-572-3961,Latin,
Al-Barakah Halal Supermarket,13642 Jefferson Davis Highway,Woodbridge,VA,22191,703-910-6780,Indian,
Asian Grocery Market,4809 Columbia Pike,Arlington,VA,22204,703-892-5004,Latin,
Amity Halal Market,11212 Lee Highway,Fairfax,VA,22030,703-591-2900,Halal,
Ali Grocery,14808 Build America Drive,Woodbridge,VA,22191,703-497-8669,Halal,
Asia Bazaar,7864 Richmond Highway,Alexandria,VA,22306,703-360-9333,Indian,
Asia Halal Supermarket,5171 Lee Highway,Arlington,VA,22207,703-533-0606,Halal,
Amigos Deli & Supermarket,8723 Cooper Road,Alexandria,VA,22309,703-799-8886,Latin,
African Grocery& Meat Market,6243 Little River Turnpike,Alexandria,VA,22312,703-914-2525,African,
Aphrodite Greek Imports,5886 Leesburg Pike,Falls Church,VA,22041,703-931-5055,Greek,
Ashland Meat Company @ Cross Brothers,107 S Railroad Avenue,Ashland,VA,23005,804-798-8311,,
Asia Grocery,5444 Virginia Beach Boulevard,Virginia Beach,VA,23462,757-456-2271,Asian,
Aditi Spice Depot,409 Maple Avenue E,Vienna,VA,22180,703-938-3400,Indian,
Afghan Market,5715 Edsall Road,Alexandria,VA,22304,703-212-9529,Afghan,
American Asian Foodmarket,315 N Great Neck Road,Virginia Beach,VA,23454,757-498-1222,Asian,
Asian Market,9503 W Broad Street,Henrico,VA,23294,804-346-0301,Asian,
Aditi Spice Depot,600 Carlisle Drive,Herndon,VA,20170,703-464-1100,Indian,
Anand Bazar,11745 Jefferson Avenue,Newport News,VA,23606,757-595-7388,Halal,
Asian Grocery & Halal Food,3416 Williamson Road,Roanoke,VA,24012,540-563-3779,Asian,
Arco Iris Latino Market,6111 Staples Mill Road,Richmond,VA,23228,804-261-7618,Mexican,
Adnan: Halal Meat & Grocery,10160 West Broad Street,Glen Allen,VA,23060,804-249-4665,Halal,
BJ's Wholesale,101 S. Van Dorn Street.,Alexandria,VA,22304,703-212-8700,Wholesale,
BJ's Wholesale,6607 Wilson Boulevard,Falls Church,VA,22044,703-286-3380,Wholesale,
BJ's Wholesale,13053 Fair Lakes Shopping Center,Fairfax,VA,22033,703-803-0200,Wholesale,
BJ's Wholesale,14123 Noblewood Plaza,Woodbridge,VA,22193,703-730-0100,Wholesale,
BJ's Wholesale,2301 Taylor Road,Chesapeake,VA,23321,757-465-2700,Wholesale,
BJ's Wholesale,5820 E. Virginia Beach Boulevard,Norfolk,VA,23502,757-448-1500,Wholesale,
BJ's Wholesale,2000 Power Plant Parkway,Hampton,VA,23666,757-846-2020,Wholesale,
BJ's Wholesale,3712 Virginia Beach Boulevard,Virginia Beach,VA,23452,757-486-0700,Wholesale,
BJ's Wholesale,5100 Wellington Road,Gainesville,VA,20155,703-468-6110,Wholesale,
BJ's Wholesale,3985 Plank Road,Fredericksburg,VA,22407,540-785-9221,Wholesale,
BJ's Wholesale,7260 Bell Creek Road,Mechanicsville,VA,23111,804-559-9554,Wholesale,
BJ's Wholesale,1320 Starling Drive,Richmond,VA,23229,804-727-3500,Wholesale,
BJ's Wholesale,1419 Hershberger Road NW,Roanoke,VA,24012,540-597-1994,Wholesale,
Bestway Supermarket,690 Elden Street,Herndon,VA,20170,703-668-0325,Latin,
Bridgewater Foods,519 N Main Street,Bridgewater,VA,22812,540-828-3010,,
Bestway Supermarket,3109 Graham Road,Falls Church,VA,22042,703-560-2101,Latin,
Bestway Supermarket,5695 Telegraph Road,Alexandria,VA,22303,703-960-8501,Latin,
Bombay Food,11213 Lee Highway,Fairfax,VA,22030,703-352-3663,Indian,
Bangkok 54 Oriental Market,2927 Columbia Pike,Arlington,VA,22204,703-521-4207,Thai,
Bhavani Cash & Carry,8400 W Broad Street,Richmond,VA,23294,804-217-8400,Indian,
Balducci's Food Lovers Market,600 Franklin Street,Alexandria,VA,22314,703-549-6611,,
Bethlehem Restaurant & Grocery,1613 Williamson Road,Roanoke,VA,24012,540-904-6606,Mediterranean,
Costco,3171 District Avenue,Charlottesville,VA,22901,454-328-7023,Wholesale,Yes
Costco,1401 Mall Drive,North Chesterfield,VA,23235,804-464-9110,Wholesale,Yes
Costco,9650 W Broad Street,Glen Allen,VA,23060,804-727-3050,Wholesale,Yes
Costco,1830 Reservoir Street,Harrisonburg,VA,22801,540-432-8989,Wholesale,Yes
Costco,3102 Plank Road,Fredericksburg,VA,22407,540-785-1160,Wholesale,Yes
Costco,10701 Sudley Manor Drive,Manassas,VA,20109,703-368-7579,Wholesale,Yes
Costco,2700 Potomac Mills Circle,Woodbridge,VA,22192,703-490-7410,Wholesale,Yes
Costco,4725 West Ox Road,Fairfax,VA,22030,703-332-3200,Wholesale,Yes
Costco,251 Front Royal Pike,Winchester,VA,22602,540-722-9626,Wholesale,Yes
Costco,7373 Boston Boulevard,Springfield,VA,22153,703-912-1203,Wholesale,Yes
Costco,7940 Richmond Highway,Alexandria,VA,22306,571-458-3500,Wholesale,Yes
Costco,12121 Jefferson Avenue,Newport News,VA,23602,757-746-2003,Wholesale,Yes
Costco,21398 Price Cascades Plaza,Sterling,VA,20164,703-406-6500,Wholesale,Yes
Costco,1300 Edwards Ferry Road NE,Leesburg,VA,20176,703-669-5061,Wholesale,Yes
Costco,1200 South Fern Street,Arlington,VA,22202,703-413-2324,Wholesale,Yes
Costco,850 Glenrock Road,Norfolk,VA,23502,757-459-4471,Wholesale,Yes
Costco,14390 Chantilly Crossing Lane,Chantilly ,VA,20151,703-885-5544,Wholesale,Yes
Cho Eden Supermarket,6763 Wilson Boulevard,Falls Church,VA,22044,571-730-4432,Asian,
Crystal Foods,7351 Lockport Place,Lorton,VA,22079,703-372-5337,Pakistani,
Community Supermarket,1915 Mechanicsville Turnpike,Richmond,VA,23223,804-344-9898,,
Cranberry's Grocery & Eatery,7 South New Street,Staunton,VA,24401,540-885-4755,Organic,
C'ville Oriental,1195 Seminole Trail,Charlottesville,VA,22901,434-984-4903,Asian,
Cocos Food,46900 Cedar Lake Plaza,Sterling,VA,20164,703-433-2003,International,
Desi Bazar,6127 Backlick Road,Springfield,VA,22150,703-866-6101,Indian,
Daily Spices,8424 Lee Highway,Fairfax,VA,22031,703-752-2314,Indian,
Davis General Streetore,7600 Clifton Road,Fairfax Streetation,VA,22039,703-250-7003,,
Deltaville Market,15738 General Puller Highway,Deltaville,VA,23043,804-776-6131,,
Dutch Pantry,8296 Seminole Trail,Ruckersville,VA,22968,434-985-3300,,
Delicate Oriental Grocery,5394 Kemps River Drive,Virginia Beach,VA,23464,757-216-2611,Asian,
Deshi Bazar International Halal Market,5701 Columbia Pike,Falls Church,VA,22042,703-347-7439,Indian,
Duangrat Oriental Food Mart,5888 Leesburg Pike,Falls Church,VA,22041,703-578-0622,Asian,
Ellwood Thompson's,4 N Thompson Street,Richmond,VA,23221,(804) 359-7525,Organic,
European Foods Import Export Inc,2700 N Pershing Drive,Arlington,VA,22201,703-524-6800,International,
El Compadre Grocery,8723 Cooper Road,Alexandria,VA,22309,703-799-8886,Latin,
El Paisa Grocery and Take-out,3414 Mt Vernon Avenue,Alexandria,VA,22305,703-299-0214,Latin,
Eastern World Market,545 E Market Street,Leesburg,VA,20176,703-777-9545,Asian,
E Mart,13276 Warwick Boulevard,Newport News,VA,23602,757-833-0727,International,
El Ranchito Mexican Streetore,21359 S Bayside Road,Cheriton,VA,23316,757-331-1119,Mexican,
Food City,145 West Lee Highway,Chilhowie,VA,24319,276-646-5723,,
Food City,1135 Claypool Hill Mall Road,Cedar Bluff,VA,24609,276-963-4558,,
Food City,910 North Main Street,Marion,VA,24354,276-783-1795,,
Food City,955 East Stuart Drive,Galax,VA,24333,276-238-0700,,
Food City,1000 Leatherwood Crossing,Bluefield,VA,24605,276-322-2515,,
Food City,1400 Bob White Boulevard,Pulaski,VA,24301,540-980-9336,,
Food City,1701 Tyler Avenue,Radford,VA,24141,540-744-3376,,
Food City,568 East Main Street,Independence,VA,24348,276-773-2751,,
Food City,1320 Euclid Avenue,Bristol,VA,24201,276-466-2330,,
Food City,3004 US-23,Weber City,VA,24290,276-386-7886,,
Food City,159 Pittston Road,Lebanon,VA,24266,276-889-5914,,
Food City,736 N Beaver Dam Avenue,Damascus,VA,24236,276-475-5570,,
Food City,100 Bonham Road,Bristol,VA,24201,276-669-2009,,
Food City,410 Chase Street,Clintwood,VA,24228,276-926-4747,,
Food City,603 Wood Avenue East,Big Streetone Gap,VA,24219,276-523-1631,,
Food City,207 Woodland Drive SW,Wise,VA,24293,276-328-4619,,
Food City,151 Cook Street,Abingdon,VA,24210,276-628-3654,,
Food City,16410 Wise Street,St. Paul,VA,24283,276-762-5831,,
Food City,517 Front Street W,Coeburn,VA,24230,276-807-7466,,
Food City,18765 Riverside Drive,Vansant,VA,24656,276-935-7578,,
Food City,205 Riverbend Drive,Pennington Gap,VA,24277,276-546-4186,,
Food Lion,7760 Gunston Plaza Drive,Lorton,VA,22079,703-550-9166,,
Food Lion,13414 Jefferson Davis Highway,Woodbridge,VA,22192,703-492-0244,,
Food Lion,12420 Dillingham Square,Lake Ridge,VA,22192,703-580-8180,,
Food Lion,14641 Jefferson Davis Highway,Woodbridge,VA,22191,703-490-6486,,
Food Lion,5592 Staples Mill Plaza,Woodbridge,VA,22193,703-878-4564,,
Food Lion,6306 Hoadly Road,Manassas,VA,20112,703-580-5254,,
Food Lion,5227 Waterway Drive,Dumfries,VA,22026,703-897-9220,,
Food Lion,9121 Centreville Road,Manassas,VA,20110,703-361-6271,,
Food Lion,17120 Jefferson Davis Highway,Dumfries,VA,22026,703-441-0677,,
Food Lion,13490 Dumfries Road,Manassas,VA,20112,703-791-5360,,
Food Lion,3059 Centreville Road,Herndon,VA,20171,703-904-0420,,
Food Lion,46081 Briarcroft Plaza,Sterling,VA,20164,703-430-5408,,
Food Lion,20789 Great Falls Plaza,Sterling,VA,20165,703-421-8198,,
Food Lion,15429 Dahlgren Road,King George,VA,22485,540-663-2959,,
Food Lion,720 S King Street,Leesburg,VA,20175,703-779-0240,,
Food Lion,6358 Village Center Drive,Baeleton,VA,22712,540-439-1373,,
Food Lion,241 Gateway Plaza,Gate City,VA,24251,276-386-6650,,
Food Lion,845 Village Boulevard,Abingdon,VA,24210,276-739-2383,,
Food Lion,945 N Main Street,Marion,VA,24354,276-783-6151,,
Food Lion,124 Kent Ridge Road,Richlands,VA,24641,276-964-7451,,
Food Lion,248 Market Street,North Tazewell,VA,24651,276-988-2900,,
Food Lion,1155 N 4th Street,Wytheville,VA,24382,276-228-7118,,
Food Lion,302 S. Main Street,Pearisburg,VA,24134,540-921-2571,,
Food Lion,1200 Tyler Avenue,Radford,VA,24141,540-639-9725,,
Food Lion,1530 North Franklin Street,Christiansburg,VA,24073,540-382-5235,,
Food Lion,801 Hethwood Boulevard,Blacksburg,VA,24060,540-951-1016,,
Food Lion,1530 Roanoke Street,Christiansburg,VA,24073,540-382-3900,,
Food Lion,1200 East Main Street,Pulaski,VA,24301,540-980-3156,,
Food Lion,1413 N Main Street,Blacksburg,VA,24060,540-552-1445,,
Food Lion,350 West Main Street,Floyd,VA,24091,540-745-3600,,
Food Lion,125 S Main Street,Hillsville,VA,24343,276-728-9111,,
Food Lion,28 Wildwood Road,Salem,VA,24153,540-389-6058,,
Food Lion,1380 East Main Street,Wytheville,VA,24382,276-228-7696,,
Food Lion,4387 Starkey Road,Roanoke,VA,24014,540-989-1952,,
Food Lion,4933 Grandin Road SW,Roanoke,VA,24018,540-989-0895,,
Food Lion,629 Peters Creek Road NW,Roanoke,VA,24017,540-982-2018,,
Food Lion,2110 Bennington Street SE,Roanoke,VA,24014,540-427-3178,,
Food Lion,2631 Peters Creek Road,Roanoke,VA,24017,540-562-2210,,
Food Lion,4812 Hollins Road,Roanoke,VA,24019,540-563-9704,,
Food Lion,1952 Washington Avenue,Vinton,VA,24179,540-890-6026,,
Food Lion,1641 Blue Ridge Boulevard,Troutville,VA,24175,540-977-2758,,
Food Lion,110 Market Center Way,Daleville,VA,24093,540-992-6335,,
Food Lion,850 Tanyard Road,Rocky Mount,VA,24151,540-483-8651,,
Food Lion,14807 Moneta Road,Moneta,VA,24121,540-297-0323,,
Food Lion,1515 Longwood Avenue,Bedford,VA,24523,540-586-3867,,
Food Lion,1005 South Craig Avenue,Covington,VA,24426,540-965-9553,,
Food Lion,84 E Midland Trail,Lexington,VA,24450,540-464-5026,,
Food Lion,2450 East Midland Trail,Buena Vista,VA,24416,540-261-7672,,
Food Lion,1102 Washington Street,Amherst,VA,24521,434-946-7646,,
Food Lion,4925 Boonsboro Road,Lynchburg,VA,24503,434-384-0179,,
Food Lion,20 Windmill Square,Stuarts Driveaft,VA,24477,540-337-0085,,
Food Lion,192 Amelon Square,Madison Heights,VA,24572,434-929-6863,,
Food Lion,111 Seminole Drive,Madison Heights,VA,24572,434-528-2632,,
Food Lion,18013 Forest Road,Forest,VA,24551,434-385-8454,,
Food Lion,2909 Memorial Avenue,Lynchburg,VA,24501,434-846-0022,,
Food Lion,85 Calohill Drive,Lovingston,VA,22949,434-263-8748,,
Food Lion,2411 West Beverly Street,Staunton,VA,24401,540-885-8022,,
Food Lion,600 N Coalter Street,Staunton,VA,24401,540-887-6308,,
Food Lion,208 Laurel Hill Road,Verona,VA,24482,540-248-4122,,
Food Lion,30 Windward Drive,Fishersville,VA,22939,540-946-3702,,
Food Lion,990 Hopeman Parkway,Waynesboro,VA,22980,540-942-2292,,
Food Lion,83 Augusta Avenue,Grottoes,VA,24441,540-249-0665,,
Food Lion,1021 Port Republic Road,Harrisonburg,VA,22801,540-433-4056,,
Food Lion,1751 South High Street,Harrisonburg,VA,22801,540-433-8099,,
Food Lion,85 S. Carlton Street,Harrisonburg,VA,22801,540-432-6314,,
Food Lion,1751 Virginia Avenue,Harrisonburg,VA,22802,540-434-7573,,
Food Lion,14811 Spotswood Trail,Elkton,VA,22827,540-298-9455,,
Food Lion,14054 Timber Way,Timberville,VA,22853,540-896-9601,,
Food Lion,5300 Main Street,Mount Jackson,VA,22842,540-477-4040,,
Food Lion,1029 South Main Street,Woodstock,VA,22664,540-459-8381,,
Food Lion,1400 US Highway 211 W,Luray,VA,22835,540-743-4502,,
Food Lion,558 West Main Street,Stanley,VA,22851,540-778-2081,,
Food Lion,794 Shopping Center Road,Strasburg,VA,22657,540-465-5335,,
Food Lion,4195 Winchester Road,Marshall,VA,20115,540-364-3439,,
Food Lion,613 Frost Avenue,Warrenton,VA,20186,540-349-8222,,
Food Lion,36127 Goodwin Drive,Locust Grove,VA,22508,540-972-7100,,
Food Lion,577 Madison Road,Orange,VA,22960,540-672-7272,,
Food Lion,46 Madison Plaza Drive,Madison,VA,22727,540-984-5182,,
Food Lion,408 W Gordon Avenue,Gordonsville,VA,22942,540-832-7315,,
Food Lion,136 Cedar Grove Road,Ruckersville,VA,22968,434-985-1101,,
Food Lion,11010 Kentucky Springs Road,Mineral,VA,23117,540-894-0560,,
Food Lion,570 Riverbend Drive,Charlottesville,VA,22911,434-971-8451,,
Food Lion,1131 5th Street SW,Charlottesville,VA,22902,434-971-5877,,
Food Lion,32 Mill Creek Drive,Charlottesville,VA,22902,434-295-6679,,
Food Lion,585 Branchlands Boulevard,Charlottesville,VA,22901,434-973-9424,,
Food Lion,1740 Timberwood Boulevard,Charlottesville,VA,22911,434-978-5538,,
Food Lion,198 Scottsville Center,Scottsville,VA,24590,434-286-2967,,
Food Lion,501 East Main Street,Louisa,VA,23093,540-967-2402,,
Food Lion,2225 Florida Avenue,Lynchburg,VA,24501,434-845-0150,,
Food Lion,13955 Wards Road,Lynchburg,VA,24501,434-237-9063,,
Food Lion,2103 Timberlake Road,Lynchburg,VA,24502,434-237-6655,,
Food Lion,1051 Village Highway,Rustburg,VA,24588,434-322-1029,,
Food Lion,12130 E Lynchburg Salem Turnpike,Forest,VA,24551,434-534-9396,,
Food Lion,1301-A Main Street,Altavista,VA,24517,434-309-1114,,
Food Lion,425 Lusardi Street,Brookneal,VA,24528,434-376-3270,,
Food Lion,13701 US Highway,Chatham,VA,24531,434-432-0500,,
Food Lion,100 Vaden Drive,Gretna,VA,24557,434-646-9267,,
Food Lion,4048 Franklin Turnpike ,Danville,VA,24540,434-836-1290,,
Food Lion,3305 US Highway 29,Danville,VA,24540,434-836-5335,,
Food Lion,540 Westover Drive,Danville,VA,24541,434-793-1513,,
Food Lion,1461 S Boston Road,Danville,VA,24540,434-793-8580,,
Food Lion,607 West Main Street,Danville,VA,24541,434-793-4346,,
Food Lion,1403 S. Main Street,Danville,VA,24541,434-793-4905,,
Food Lion,8500 Al Phillpott Highway,Martinsville,VA,24112,276-638-8898,,
Food Lion,1101 Brookdale Street,Martinsville,VA,24112,276-632-2220,,
Food Lion,3130 Halifax Road,South Boston,VA,24592,434-572-2049,,
Food Lion,2828 Greensboro Road,Marinsville,VA,24112,276-666-2053,,
Food Lion,1020 Bill Tuck Highway,South Boston,VA,24592,434-572-1960,,
Food Lion,5835 Virginia Avenue,Bassett,VA,24055,276-629-3819,,
Food Lion,690 King Street,Keysville,VA,23947,434-736-0308,,
Food Lion,1113 N Main Street,Chase City,VA,23924,434-372-8585,,
Food Lion,1013 Virginia Avenue,Clarksville,VA,23927,434-374-9530,,
Food Lion,1592 South Main Street,Farmville,VA,23901,434-392-9486,,
Food Lion,38 S Constitution Route,Dilwyn,VA,23936,434-983-1969,,
Food Lion,950 Main Street,Victoria,VA,23974,434-696-2810,,
Food Lion,15105 Patrick Henry High,Amelia,VA,23002,804-561-5222,,
Food Lion,1521 South Main Street,Blackstone,VA,23824,434-292-1620,,
Food Lion,264 Turkeysag Trail,Palmyra,VA,22963,434-589-55538,,
Food Lion,2724 Fairground Road,Goochland,VA,23063,804-556-9001,,
Food Lion,2105 Academy Road,Powhatan,VA,23139,804-598-6880,,
Food Lion,30 Broad Street Road,Manakin Sabot,VA,23103,804-784-3102,,
Food Lion,1800 South Creek One,Powhatan,VA,23139,804-378-9105,,
Food Lion,3081 Lauderdale Drive,Richmond,VA,23233,804-360-3698,,
Food Lion,16615 Mountain Road,Montpelier,VA,23192,804-883-5068,,
Food Lion,11272 Patterson Avenue,Richmond,VA,23238,804-740-4306,,
Food Lion,11371 Nuckols Road,Glen Allen,VA,23059,804-967-9321,,
Food Lion,13100 Midlothian Turnpike,Midlothian,VA,23113,804-379-8988,,
Food Lion,7504 W. Broad Street,Henrico,VA,23294,804-672-6370,,
Food Lion,9157 Staples Mill Road,Richmond,VA,23228,804-672-6404,,
Food Lion,13530 Waterford Place,Midlothian,VA,23112,804-744-7146,,
Food Lion,1100 Courthouse Road,Richmond,VA,23236,804-379-6797,,
Food Lion,6815 Forest Hill Avenue,Richmond,VA,23225,804-330-9430,,
Food Lion,8006 Buford Court,Richmond,VA,23235,804-330-7866,,
Food Lion,13961 Hull Street,Midlothian,VA,23112,804-739-0960,,
Food Lion,11130 Hull Street,Midlothian,VA,23112,804-744-7028,,
Food Lion,253 N Washington Highway,Ashland,VA,23005,804-798-1305,,
Food Lion,6409 Jahnke Road,Richmond,VA,23225,804-320-0996,,
Food Lion,1228 Concord Avenue,Richmond,VA,23227,804-26-1484,,
Food Lion,5300 Chamberlayne Road,Richmond,VA,23227,804-266-2644,,
Food Lion,8201 Hull Street,Richmond,VA,23235,804-276-3570,,
Food Lion,9541 Kings Charter Drive,Ashland,VA,23005,804-550-2502,,
Food Lion,5620 Hull Street,Richmond,VA,23225,804-230-3596,,
Food Lion,6201 Belmont Road,Chesterfield,VA,23832,804-745-1095,,
Food Lion,9502 Chamberlayne Road,Mechanicsville,VA,23116,804-730-3686,,
Food Lion,3089 Mechanicsville Turnpike,Richmond,VA,23223,804-644-3807,,
Food Lion,6426 Iron Bridge Place,Richmond,VA,23234,804-271-9885,,
Food Lion,4116 Meadowdale Boulevard,Richmond,VA,23234,804-271-6199,,
Food Lion,8319 Bell Creek Road,Mechanicsville,VA,23116,804-559-5826,,
Food Lion,7032 Commons Plaza Drive,Chesterfield,VA,23832,804-796-2112,,
Food Lion,5702 Jefferson Davis Highway,North Chesterfield,VA,23234,804-271-4499,,
Food Lion,7095 Mechanicsville Turnpike,Mechanicsville,VA,23111,804-746-7829,,
Food Lion,2949 Williamsburg Road,Richmond,VA,23231,804-236-0188,,
Food Lion,17501 Jefferson Davis Highway,Ruther Glen,VA,22546,804-448-1448,,
Food Lion,6320 Jefferson Davis Highway,Spotsylvania,VA,22553,540-582-7445,,
Food Lion,8149 Kings Highway,King George,VA,22485,540-775-4894,,
Food Lion,15432 Rogers Clark Boulevard,Bowling Green,VA,22427,804-633-5543,,
Food Lion,600 McKinney Boulevard,Colonial Beach,VA,22443,804-224-2064,,
Food Lion,4915 Richmond Tappahannock Highway,Aylett,VA,23009,804-769-8824,,
Food Lion,1856 Tappahannock Boulevard,Tappahannock,VA,22560,804-443-5518,,
Food Lion,4665 Richmond Road,Warsaw,VA,22572,804-333-6368,,
Food Lion,18044 Kings Highway,Montross,VA,22520,804-493-7367,,
Food Lion,7424 Northumberland Highway,Heathsville,VA,22473,804-580-7326,,
Food Lion,12532 Tidewater Trail,Saluda,VA,23149,804-758-2257,,
Food Lion,100 Winter Street,West Point,VA,23181,804-843-4704,,
Food Lion,424 North Main Street,Kilmarnock,VA,22482,804-435-1163,,
Food Lion,4092 Lankford Highway,Exmore,VA,23350,757-442-6803,,
Food Lion,25102 Lankford Highway,Onley,VA,23418,757-787-7546,,
Food Lion,22485 Lankford Highway,Cape Charles,VA,23310,757-331-2340,,
Food Lion,183 Main Street,Mathews,VA,23109,804-725-1240,,
Food Lion,1234 Richmond Road,Williamsburg,VA,23185,757-229-2010,,
Food Lion,701-A Merrimac Trail,Williamsburg,VA,23185,757-258-4661,,
Food Lion,5251 John Tyler Highway,Williamsburg,VA,23185,757-220-1473,,
Food Lion,5601 Richmond Road,Williamsburg,VA,23188,757-565-1321,,
Food Lion,7537 Richmond Road,Williamsburg,VA,23188,757-253-7950,,
Food Lion,2292 York Crossing Drive,Hayes,VA,23072,804-642-9736,,
Food Lion,15434 Warwick Boulevard,Newport News,VA,23607,757-875-9835,,
Food Lion,12917 Jefferson Avenue,Newport News,VA,23608,757-876-8354,,
Food Lion,8100 George Washington Highway,Yorktown,VA,23692,757-890-2655,,
Food Lion,7465 Hargett Boulevard,Gloucester,VA,23061,804-695-1211,,
Food Lion,467 Oriana Road,Newport News,VA,23608,757-877-1403,,
Food Lion,5210 George Washington Memorial Highway,Grafton,VA,23692,757-898-5023,,
Food Lion,316 Oyter Point Road,Newport News,VA,23602,757-249-1663,,
Food Lion,41 Hiden Boulevard,Newport News,VA,23606,757-595-6821,,
Food Lion,980 J Clyde Morris Boulevard,Newport News,VA,23601,757-595-9419,,
Food Lion,11712 Jefferson Avenue,Newport News,VA,23607,757-873-8418,,
Food Lion,2900 Hampton Highway,Yorktown,VA,23693,757-865-0848,,
Food Lion,425 Wythe Creek Road,Poquoson,VA,23662,757-868-8029,,
Food Lion,10880 Warwick Boulevard,Newport News,VA,23601,757-595-0115,,
Food Lion,1164 Big Bethel Road,Hampton,VA,23666,757-262-0956,,
Food Lion,9030 Pocahantos Trail,Providence Forge,VA,23140,804-966-9419,,
Food Lion,1941 S Church Street,Smithfield,VA,23430,757-357-0200,,
Food Lion,123 E Newmarket Square,Hampton,VA,23605,757-255-7887,,
Food Lion,4047 West Mercury Boulevard,Hampton,VA,23666,757-825-8020,,
Food Lion,85 Coliseum Crossing,Hampton,VA,23666,757-827-1304,,
Food Lion,13478 Carrolton Boulevard,Carrolton,VA,23314,757-238-3330,,
Food Lion,21 West Mercury Boulevard,Hampton,VA,23669,757-727-9001,,
Food Lion,3855 Kecoughtan Road,Hampton,VA,23669,757-723-8802,,
Food Lion,2070 Nickerson Boulevard,Hampton,VA,23663,757-850-0302,,
Food Lion,608 Mercury Boulevard,Hampton,VA,23663,757-723-0771,,
Food Lion,3215 Bridge Road,Suffolk,VA,23435,757-484-4467,,
Food Lion,7300 Market Place Drive,Quinton,VA,23141,804-932-8807,,
Food Lion,4000 Prince George Drive,Prince George,VA,23875,804-458-5567,,
Food Lion,2120 S Crater Road,Petersburg,VA,23805,804-863-2627,,
Food Lion,5209 Plaza Drive,Hopewell,VA,23860,804-458-7207,,
Food Lion,11 Dunlop Village,Colonial Heights,VA,23834,804-526-0143,,
Food Lion,20821 Woodpecker Road,Ettrick,VA,23803,804-520-4510,,
Food Lion,4320 Westgate Drive,Dinwiddie,VA,23803,804-863-2064,,
Food Lion,28344 Southampton Parkway,Courtland,VA,23837,757-653-9790,,
Food Lion,11435 Windsor Boulevard,Windsor,VA,23487,757-242-3993,,
Food Lion,13145 Rivers Blend Boulevard,Chester,VA,23836,804-530-1051,,
Food Lion,1328 Armory Drive,Franklin,VA,23851,757-562-6693,,
Food Lion,13103 Boydton Plank Road,Dinwiddie,VA,23841,804-469-3790,,
Food Lion,12120 Bermuda Crossroad Lane,Chester,VA,23831,804-706-1488,,
Food Lion,9801 Chester Road,Chester,VA,23831,804-748-0560,,
Food Lion,2589 New Kent Highway,Quinton,VA,23141,804-932-3188,,
Food Lion,910 Great Bridge Boulevard,Chesapeake,VA,23320,757-436-4555,,
Food Lion,2048 Atlantic Avenue,Chesapeake,VA,23324,757-494-3527,,
Food Lion,2544 Bainbridge Boulevard,Chesapeake,VA,23324,757-494-5981,,
Food Lion,2012 Victory Boulevard,Portsmouth,VA,23702,757-487-1304,,
Food Lion,109 Gainsborough Square,Chesapeake,VA,23320,757-382-7799,,
Food Lion,801 Volvo Parkway,Chesapeake,VA,23320,757-436-9304,,
Food Lion,2800 Yadkin Road,Chesapeake,VA,23323,757-558-0168,,
Food Lion,2617 Moses Grandy Trail,Chesapeake,VA,23323,757-487-1228,,
Food Lion,1245 Cedar Road,Chesapeake,VA,23322,757-547-7927,,
Food Lion,6527 College Park Square,Virginia Beach,VA,23464,757-361-5270,,
Food Lion,1503 London Boulevard,Portsmouth,VA,23704,757-397-8812,,
Food Lion,880 S. Military & Indian River,Virginia Beach,VA,23464,757-523-0217,,
Food Lion,1920 Centerville Turnpike,Virginia Beach,VA,23464,757-479-3690,,
Food Lion,717 Battlefield Boulevard S,Chesapeake,VA,23322,757-482-5259,,
Food Lion,3539 Airline Boulevard,Portsmouth,VA,23701,757-488-1099,,
Food Lion,5610 Portsmouth Boulevard,Portsmouth,VA,23701,757-488-8014,,
Food Lion,415 Centerville Turnpike,Chesapeake,VA,23322,757-482-4854,,
Food Lion,5020 Ferrell Parkway,Virginia Beach,VA,23464,757-467-7516,,
Food Lion,2401 Colley Avenue,Norfolk,VA,23517,757-626-3936,,
Food Lion,5242 Fairfield Shopping Centre,Virginia Beach,VA,23464,757-467-1454,,
Food Lion,4221 Pleasant Valley Road,Virginia Beach,VA,23464,757-495-9624,,
Food Lion,2409 Taylor Road,Chesapeake,VA,23321,757-465-6178,,
Food Lion,5277 Princess Anne Road,Virginia Beach,VA,23462,757-490-1808,,
Food Lion,1235 N Military Highway,Norfolk,VA,23502,757-461-2533,,
Food Lion,3530 Tidewater Drive,Norfolk,VA,23509,757-623-1469,,
Food Lion,5734 Churchland Boulevard,Portsmouth,VA,23703,757-483-0480,,
Food Lion,3960 Salem Boulevard,Virginia Beach,VA,23456,757-471-3353,,
Food Lion,3325 Taylor Road Taylor Plaza,Chesapeake,VA,23321,757-484-6383,,
Food Lion,4848 Va Beach Boulevard,Virginia Beach,VA,23462,757-497-1991,,
Food Lion,6206 Military Highway,Norfolk,VA,23518,757-853-2850,,
Food Lion,5461 Wesleyan Drive,Virginia Beach,VA,23462,757-499-8133,,
Food Lion,4312 Holland Road,Virginia Beach,VA,23452,757-637-6400,,
Food Lion,7525 Tidewater Drive,Norfolk,VA,23505,757-588-7791,,
Food Lion,6550 Hampton Roads Parkway,Suffolk,VA,23435,757-483-3206,,
Food Lion,1859 E Little Creek Road,Norfolk,VA,23518,757-588-0423,,
Food Lion,748 Independence Boulevard,Virginia Beach,VA,23455,757-499-0794,,
Food Lion,8401 Hampton Boulevard,Norfolk,VA,23505,757-489-2717,,
Food Lion,3770 Birchwood Mall,Virginia Beach,VA,23452,757-340-7920,,
Food Lion,4253 East Little Creek Road,Norfolk,VA,23518,757-583-7817,,
Food Lion,3208 Holland Road,Virginia Beach,VA,23456,757-468-3816,,
Food Lion,5193 Shore Drive,Virginia Beach,VA,23455,757-460-1786,,
Food Lion,3215 Bridge Road,Suffolk,VA,23435,757-484-4467,,
Food Lion,2352 Va Beach Boulevard,Virginia Beach,VA,23454,757-463-5741,,
Food Lion,1010 Portsmouth Boulevard,Suffolk,VA,23434,757-934-6484,,
Food Lion,2005 Sandbridge Road,Virginia Beach,VA,23456,757-426-2774,,
Food Lion,1340 N Great Neck Road,Virginia Beach,VA,23454,757-481-1584,,
Food Lion,2817 Shore Drive,Virginia Beach,VA,23451,757-481-7480,,
Food Lion,1615 General Booth Boulevard,Virginia Beach,VA,23454,757-426-6971,,
Food Lion,2815 Godwin Boulevard,Suffolk,VA,23434,757-934-2745,,
Food Lion,1077 Va Beach Boulevard,Virginia Beach,VA,23454,757-425-6376,,
Food Lion,1524 Holland Road,Suffolk,VA,23434,757-538-2678,,
Food Lion,216 Market Drive,Emporia,VA,23847,434-348-0925,,
Food Lion,131 Brunswick Square Court,Lawrenceville,VA,23868,434-848-4783,,
Farm Fresh,4000 Victory Boulevard,Portsmouth,VA,23701,757-966-5206,,
Farm Fresh,353 Chatham Drive,Newport News,VA,23602,757-886-9300,,
Food Maxx,1107 Berryville Avenue,Winchester,VA,22601,540-722-4604,International,
Fair Price International Market,23520 Overland Drive,Sterling,VA,20166,703-661-0940,International,
Food Streetar,206 W Glebe Road,Alexandria,VA,22305,703-685-3996,International,
Fresh World,9540 Liberia Avenue,Manassas,VA,20110,703-330-4771,International,
Fiesta Supermarket,104 Olde Greenwich Drive,Fredericksburg,VA,22408,540-898-4884,Latin,
Fairway Supermarket,13642 Jefferson Davis Highway,Woodbridge,VA,22191,703-910-6780,Asian,
Fair Price,13863 Smoketown Road,Woodbridge,VA,22192,703-680-1170,Halal,
Fresh World,6901 Hechinger Drive,Springfield,VA,22151,703-256-5201,International,
Fresh World,1070 Elden Street,Herndon,VA,20170,703-435-8200,International,
Filipino Global Supermarket,5509 Leesburg Pike,Falls Church,VA,22041,703-820-1961,Filipino,
Farmers International Foods,1505 Lynnhaven Parkway,Virginia Beach,VA,23453,757-689-8244,International,
F and L Market Grocery Streetore,2517 Memorial Avenue,Lynchburg,VA,24501,434-846-7448,,
Four Seasons Oriental Grocery,311 Kellam Road,Virginia Beach,VA,23462,757-499-2173,Asian,
Far East,6317 Rigsby Road,Richmond,VA,23226,804-288-9518,Asian,
Five Mile International Supermarket,6322 5 Mile Centre Park,Fredericksburg,VA,22407,540-548-2492,International,
Fresh To Frozen,7803 Midlothian Turnpike,Richmond,VA,23235,(804) 675-7283,,
Great Wall Supermarket,2982 Gallows Road,Falls Church,VA,22042,703-208-3320,Asian,
Giant,3131 Duke Street,Alexandria,VA,22314,703-461-6198,,
Giant,621 East Glebe Road,Alexandria,VA,22305,703-518-4797,,
Giant,5870 Kingstowne Boulevard,Alexandria,VA,22315,703-313-8092,,
Giant,6800 Richmond Highway,Alexandria,VA,22306,703-768-6720,,
Giant,6200 Little River Turnpike,Alexandria,VA,22312,703-370-4856,,
Giant,6980 Braddock Road,Annandale,VA,22003,703-333-6360,,
Giant,7137 Columbia Pike,Annandale,VA,22003,703-354-5081,,
Giant,2501 9th Road South,Arlington,VA,22204,703-271-2479,,
Giant,2901 Glebe Road,Arlington,VA,22206,703-836-0245,,
Giant,3115 Lee Highway,Arlington,VA,22201,703-527-9453,,
Giant,3450 Washington Boulevard,Arlington,VA,22201,703-358-9343,,
Giant,43330 Junction Plaza,Ashburn,VA,20147,703-723-2160,,
Giant,43670 Greenway Corp Drive,Ashburn,VA,20147,571-223-3848,,
Giant,44110 Ashburn Shopping Plaza,Ashburn,VA,20147,703-729-3877,,
Giant,6011 Burke Center Parkway,Burke,VA,22015,703-425-0360,,
Giant,14125 Street Germain Drive,Centreville,VA,20121,703-631-3310,,
Giant,5615 Stone Road,Centreville,VA,20120,703-803-9698,,
Giant,25050 Riding Plaza,Chantilly,VA,20152,703-542-2950,,
Giant,1900 Abbey Road,Charlottesville,VA,22911,434-244-4300,,
Giant,5740 Union Mill Road,Clifton,VA,20124,703-818-0776,,
Giant,4309 Dale Boulevard,Dale City,VA,22193,703-670-5407,,
Giant,5469 Mapledale Plaza,Dale City,VA,22193,703-590-1200,,
Giant,10653 Braddock Road,Fairfax,VA,22032,703-259-5514,,
Giant,13043 Lee Jackson Memorial Highway,Fairfax,VA,22033,703-968-8324,,
Giant,"9400 Fairfax Boulevard, Fairfax Circle",Fairfax,VA,22031,703-359-2584,,
Giant,1230 W Broad Street,Falls Church,VA,22046,703-237-9609,,
Giant,3480 S Jefferson Street,Falls Church,VA,22041,703-845-0446,,
Giant,6360 Seven Corners Center,Falls Church,VA,22044,703-534-6687,,
Giant,7235 Arlington Boulevard,Falls Church,VA,22042,703-280-3340,,
Giant,35 Town and Country Road,Falmouth,VA,22405,540-899-1060,,
Giant,1245 Jefferson Davis Highway,Fredericksburg,VA,22401,540-373-2734,,
Giant,550 Celebrate Virginia Parkway,Fredericksburg,VA,22406,540-286-1721,,
Giant,5701 Plank Road,Fredericksburg,VA,22407,540-785-1020,,
Giant,7575 Linton Hall Road,Gainesville,VA,20155,703-754-2040,,
Giant,5581 Merchants View Square,Haymarket,VA,20169,571-248-4550,,
Giant,13330 Franklin Farm Road,Herndon,VA,20171,703-689-3564,,
Giant,2425 Centreville Road,Herndon,VA,20171,703-437-3162,,
Giant,2551 John Milton Drive,Herndon,VA,20171,703-715-9852,,
Giant,12445 Hedges Run Drive,Lake Ridge,VA,22192,703-491-7615,,
Giant,61 Catoctin Circle NE,Leesburg,VA,20176,703-771-1899,,
Giant,635 Potomac Station Drive,Leesburg,VA,20176,571-258-1900,,
Giant,8941 Ox Road,Lorton,VA,22079,703-690-5000,,
Giant,10100 Dumfries Road,Manassas,VA,20110,703-331-2310,,
Giant,8025 Sudley Road,Manassas,VA,20109,703-361-2541,,
Giant,1454 Chain Bridge Road,McLean,VA,22101,703-893-0377,,
Giant,2932 Chain Bridge Road,Oakton,VA,22124,703-242-2368,,
Giant,1000 East Main Street,Purcellville,VA,20132,703-443-6360,,
Giant,1450 North Point Village Center,Reston,VA,20194,703-437-0031,,
Giant,10346 Courthouse Road,Spotsylvania,VA,22553,540-710-9310,,
Giant,6364A Springfield Plaza,Springfield,VA,22150,703-569-9277,,
Giant,7501 Huntsman Boulevard,Springfield,VA,22153,703-866-3009,,
Giant,8074 Rolling Road,Springfield,VA,22153,703-912-6483,,
Giant,8320 Old Keene Mill Road,Springfield,VA,22152,703-912-6384,,
Giant,8970 Burke Lake Road,Springfield,VA,22151,571-328-7996,,
Giant,317 Worth Avenue,Stafford,VA,22554,540-657-5006,,
Giant,21000 Southbank Street,Sterling,VA,20165,703-430-1100,,
Giant,21800 Town Center Plaza,Sterling,VA,20164,703-430-6115,,
Giant,359 Maple Avenue East,Vienna,VA,22180,703-281-9257,,
Giant,41 West Lee Highway,Warrenton,VA,20186,540-347-7464,,
Global Food,10320 Festival Lane,Manassas,VA,20109,703-369-9977,International,
Global Food,13813 Foulger Square,Woodbridge,VA,22192,703-897-6100,International,
Global Food,1476 North Beauregard Street,Alexandria,VA,22311,703-933-6033,International,
German Gourmet,5838 Columbia Pike,Falls Church,VA,22041,703-379-8080,German,
Grand Mart,649 Newton Road,Virginia Beach,VA,23462,757-490-7901,International,
Ginger & Spice Market,6548 Little River Turnpike,Alexandria,VA,22312,703-916-1818,Indian,
Good Foods Grocery,3062 Stony Point Road,Richmond,VA,23235,804-320-6767,Organic,
G Market,4520 Brambleton Avenue,Cave Spring,VA,24018,540-970-3535,Asian,
Greenwood Grocery,6701 Rockfish Gap Turnpike,Crozet,VA,22932,540-456-6431,,
Goodview Grocery,7705 Goodview Road,Goodview,VA,24095,540-890-5319,,
H Mart,7885 Heritage Drive,Annandale,VA,22003,703-914-4222,Asian,
H Mart,9550 Burke Road,Burke,VA,22015,703-621-2345,Asian,
H Mart,13818 Braddock Road,Centreville,VA,20121,703-830-6180,Asian,
H Mart,8103 Lee Highway,Falls Church,VA,22042,703-573-6300,Asian,
H Mart,11200 Fairfax Boulevard,Fairfax,VA,22030,703-273-0570,Asian,
H Mart,8819 Centreville Road,Manassas,VA,20110,571-358-3400,Asian,
H Mart,1228 Elden Street,Herndon,VA,20170,571-346-7330,Asian,
Harris Teeter,42015 Village Center Plaza,Aldie,VA,20105,703-542-8340,,
Harris Teeter,1216 Greenbrier Parkway,Chesapeake,VA,23320,757-382-7300,,
Harris Teeter,237 Hanbury Road East,Chesapeake,VA,23322,757-546-9074,,
Harris Teeter,1400 Kempsville Road,Chesapeake,VA,23320,757-217-0376,,
Harris Teeter,10060 Market Circle,Manassas,VA,20110,703-257-4685,,
Harris Teeter,12745 Galveston Court,Manassas,VA,20112,703-580-0251,,
Harris Teeter,21399 Epicerie Plaza,Sterling,VA,20164,571-526-4835,,
Harris Teeter,735 N Saint Asaph Street,Alexandria,VA,22314,703-419-3837,,
Harris Teeter,4641 Duke Street,Alexandria,VA,22304,703-461-7082,,
Harris Teeter,3905 Fair Ridge Drive,Fairfax,VA,22033,703-877-0580,,
Harris Teeter,8200 Crestwood Heights Drive,McLean,VA,22102,703-448-0132,,
Harris Teeter,3575 Shoulder Hill Bridge Road,Suffolk,VA,23435,757-947-0230,,
Harris Teeter,954 South George Mason,Arlington,VA,22204,571-384-1610,,
Harris Teeter,600 North Glebe Road,Arlington,VA,22203,703-526-9100,,
Harris Teeter,2425 N Harrison Street,Arlington,VA,22207,703-532-8663,,
Harris Teeter,900 Army Navy Drive,Arlington,VA,22202,703-413-7112,,
Harris Teeter,3600 S Glebe Road,Arlington,VA,22202,703-412-1544,,
Harris Teeter,4250 Campbell Avenue,Arlington,VA,22206,703-379-2003,,
Harris Teeter,6351 Columbia Pike,Falls Church,VA,22041,703-256-6615,,
Harris Teeter,301 West Broad,Falls Church,VA,22046,571-419-6869,,
Harris Teeter,12404 Warwick Boulevard,Newport News,VA,23606,757-595-6000,,
Harris Teeter,2675 Avenuenir Place,Vienna,VA,22180,703-204-0840,,
Harris Teeter,20070 Ashbrook Commons Plaza,Ashburn,VA,20147,571-225-0110,,
Harris Teeter,42415 Ryan Road,Ashburn,VA,20148,703-542-8300,,
Harris Teeter,43300 Southern Walk Plaza,Ashburn,VA,20148,703-723-0842,,
Harris Teeter,42780 Creek View Plaza,Ashburn,VA,20147,571-223-2245,,
Harris Teeter,13901 Heathcote Boulevard,Gainesville,VA,20155,703-754-7736,,
Harris Teeter,1320 Colonial Avenue,Norfolk,VA,23517,757-533-9284,,
Harris Teeter,179 West Ocean View Avenue,Norfolk,VA,23503,757-587-0200,,
Harris Teeter,7550 Granby Street,Norfolk,VA,23505,757-588-4560,,
Harris Teeter,2800 Arctic Avenue,Virginia Beach,VA,23451,757-422-4595,,
Harris Teeter,4540 Princess Anne Road,Virginia Beach,VA,23462,757-467-4387,,
Harris Teeter,2476 Nimmo Parkway,Virginia Beach,VA,23456,757-563-9410,,
Harris Teeter,2110 N Great Neck Square,Virginia Beach,VA,23454,757-481-6254,,
Harris Teeter,1069 Independence Boulevard,Virginia Beach,VA,23455,757-217-0240,,
Harris Teeter,5060 Ferrell Parkway,Virginia Beach,VA,23464,757-467-0529,,
Harris Teeter,3333 Virginia Beach Boulevard,Virginia Beach,VA,23452,757-631-6750,,
Harris Teeter,2105 Princess Anne Road,Virginia Beach,VA,23456,757-721-2396,,
Harris Teeter,2129 General Booth Boulevard,Virginia Beach,VA,23454,757-427-6220,,
Harris Teeter,10438 Bristow Center Drive,Bristow,VA,20136,703-257-1367,,
Harris Teeter,227 Fox Hill Road,Hampton,VA,23669,757-850-0156,,
Harris Teeter,3249 Tyre Neck Road,Portsmouth,VA,23703,757-483-9235,,
Harris Teeter,530 Fletcher Drive,Warrenton,VA,20186,540-349-9500,,
Harris Teeter,25401 Eastern Marketplace Plaza,Chantilly,VA,20152,703-722-2126,,
Harris Teeter,12960 Highland Crossing Drive,Herndon,VA,20171,703-464-7934,,
Harris Teeter,105 Purcellville Gateway Drive,Purcellville,VA,20132,540-338-8995,,
Harris Teeter,4511 John Tyler Hiighway,Williamsburg,VA,23185,757-941-1680,,
Harris Teeter,6485 Centerville Road,Williamsburg,VA,23188,757-903-4350,,
Harris Teeter,1470 Quarterpath Road,Williamsburg,VA,23185,757-253-0182,,
Harris Teeter,975  Emmet Street,Charlottesville,VA,22903,434-984-2900,,
Harris Teeter,545 Radford Lane,Charlottesville,VA,22903,434-823-1184,,
Harris Teeter,159 Community Street,Charlottesville,VA,22911,434-872-0009,,
Harris Teeter,19350 Winmeade Drive,Leesburg,VA,20176,571-333-2495,,
Harris Teeter,11806 Spectrum Center,Reston ,VA,20190,703-435-5800,,
Halalway International Supermarket,4072 Jermantown Road,Fairfax,VA,22030,703-218-3104,Halal,
Halal Bazaar,11127 Lee Highway,Fairfax,VA,22030,703-591-5116,Halal,
Hall's Super Market,3895 James Monroe Highway,Colonial Beach,VA,22443,804-224-9310,,
Horton's Supermarket,1009 S Main Street,Galax,VA,24333,276-236-6662,,
Heritage Natural Market,984 Laskin Road,Virginia Beach,VA,23451,757-428-0500,Organic,
Hampton Oriental Market,1123 N King Street,Hampton,VA,23669,757-723-3003,Asian,
Halalco,5912 Leesburg Pike,Falls Church,VA,22041,703-532-3202,Halal,
Himalayan Grocery,3623 Williamson Road,Roanoke,VA,24012,540-682-8464,Asian,
Heba's Health Food,7210 Nathan Court,Manassas,VA,20109,703-361-2958,Egyptian,
Ingles,1185 N Main Street,Marion,VA,24354,276-783-5461,,
Indian Spices,1067 W Broad Street ,Falls Church,VA,22046,703-532-1777,Indian,
India A1 Grocery,4815 Lee Highway,Arlington,VA,22207,703-841-9626,Indian,
Island Foods,6277 Cleveland Street,Chincoteague,VA,23336,757-336-5829,,
International Food Market,13270 Warwick Boulevard,Newport News,VA,23602,757-336-1546,International,
Indo Pak Groceries,20600b Timberlake Road N,Lynchburg,VA,24502,434-237-1000,Indian,
Ichiban Japanese Food Streetore,867 S Lynnhaven Road,Virginia Beach,VA,23452,757-427-6800,Japanese,
Jummah Bazaar,6353 Rolling Road,Springfield,VA,22152,703-912-9090,Afghan,
J Mart,309 Aragona Boulevard,Virginia Beach,VA,23462,757-201-3520,Japanese,
Jung Ha Oriental Market,13310 Warwick Boulevard,Newport News,VA,23602,757-872-8781,Korean,
Kroger,7789 Richmond Highway,Appomatox,VA,24522,434-352-0817,,
Kroger,4119 Boonsboro Road,Lynchburg,VA,24503,434-384-2415,,
Kroger,2012 Wards Road,Lynchburg,VA,24502,434-239-6018,,
Kroger,7805 Timberlake Road,Lynchburg,VA,24502,434-237-5738,,
Kroger,15069 Forest Road,Forest,VA,24551,434-534-0020,,
Kroger,545 Radford Lane,Charlottesville,VA,22903,434-823-1184,,
Kroger,975 Emmet Street,Charlottesville,VA,22903,434-984-2900,,
Kroger,1159 Emmet Street N,Charlottesville,VA,22903,434-293-5176,,
Kroger,1904 Emmet Street N,Charlottesville,VA,22901,434-295-8334,,
Kroger,245 Arch Avenue,Waynesboro,VA,22980,540-943-3172,,
Kroger,1980 Rio Hill Center,Charlottesville,VA,22901,434-978-1311,,
Kroger,422 E Nelson Street,Lexington,VA,24450,540-464-3309,,
Kroger,159 Community Drive,Charlottesville,VA,22911,434-872-0009,,
Kroger,850 Statler Boulevard,Staunton,VA,24401,540-885-9866,,
Kroger,14101 Midlothian Turnpike,Midlothian,VA,23113,804-594-1640,,
Kroger,13201 Rittenhouse Drive,Midlothian,VA,23112,804-763-5400,,
Kroger,11895 W Broad Street,Richmond,VA,23233,804-360-2643,,
Kroger,3001 Polo Parkway,Midlothian,VA,23113,804-379-1395,,
Kroger,1356 Gaskins Road,Richmond,VA,23238,804-740-1418,,
Kroger,80 Westlake Road,Hardy,VA,24101,540-721-3102,,
Kroger,1510 Eastridge Road,Richmond,VA,23229,804-288-2730,,
Kroger,2821 Hicks Road,North Chesterfield,VA,23235,804-675-2288,,
Kroger,9480 W Broad Street,Henrico,VA,23294,804-270-0933,,
Kroger,1790 E Market Street,Harrisonburg,VA,22801,540-432-1830,,
Kroger,7000 Tim Price Way,North Chesterfield,VA,23225,804-772-8540,,
Kroger,1618 Main Street,Clifton Forge,VA,24422,540-863-5591,,
Kroger,9000 Staples Mill Road,Henrico,VA,23228,804-977-9514,,
Kroger,1601 Willow Lawn Drive,Richmond,VA,23230,804-288-2885,,
Kroger,3507 W Cary Street,Richmond,VA,23221,804-254-1975,,
Kroger,3970 Valley Gateway Boulevard,Roanoke,VA,24012,540-977-6480,,
Kroger,10800 Iron Bridge Road,Chester,VA,23831,804-318-5579,,
Kroger,72 Kingston Drive,Daleville,VA,24083,540-992-4920,,
Kroger,915 Hardy Road,Vinton,VA,24179,540-345-7017,,
Kroger,901 N Lombardy Street,Richmond,VA,23220,804-213-3620,,
Kroger,7223 Williamson Road,Roanoke,VA,24019,540-563-0110,,
Kroger,5050 Rutgers Street NW,Roanoke,VA,24012,540-362-5990,,
Kroger,12726 Jefferson Davis Highway,Chester,VA,23831,804-414-7000,,
Kroger,614 Brandon Avenue SW,Roanoke,VA,24015,540-342-1017,,
Kroger,9351 Atlee Road,Mechanicsville,VA,23116,804-569-8240,,
Kroger,3635 Peters Creek Road,Roanoke,VA,24019,540-563-3061,,
Kroger,4488 Electric Road,Roanoke,VA,24018,540-989-4434,,
Kroger,400 Old Franklin Turnpike,Rocky Mount,VA,24151,540-483-1002,,
Kroger,4816 S Laburnum Avenue,Richmond,VA,23231,804-222-0240,,
Kroger,3971 Brambleton Avenue,Roanoke,VA,24018,540-775-0861,,
Kroger,161 Electric Road,Salem,VA,24153,540-986-0009,,
Kroger,4404 Brambleton Avenue,Roanoke,VA,24018,540-776-0050,,
Kroger,903 University City Boulevard,Blacksburg,VA,24060,540-951-3045,,
Kroger,1322 S Main Street,Blacksburg,VA,24060,540-953-7004,,
Kroger,555 N Franklin Street,Christiansburg,VA,24073,540-381-8710,,
Kroger,7480 Lee Highway,Fairlawn,VA,24141,540-639-0311,,
Kroger,1477 W Main Street,Salem,VA,24153,540-387-2481,,
Kroger,1925 Electric Road,Salem,VA,24153,540-375-2600,,
Kroger,240 Commonwealth Boulevard W,Martinsville,VA,24112,276-666-4001,,
Kroger,466 Cummings Street,Abingdon,VA,24210,276-628-6015,,
Kroger,31 Midway Street,Bristol,VA,24201,276-642-0031,,
Kroger,1401 N Main Street,Suffolk,VA,23434,757-539-4800,,
Kroger,1017 University Boulevard,Suffolk,VA,23435,757-335-4536,,
Kroger,5007-2 Victory Boulevard,Tabb,VA,23693,757-234-7981,,
Kroger,3901 Holland Road,Virginia Beach,VA,23452,757-995-0400,,
Kroger,3330 Virginia Beach Boulevard,Virginia Beach,VA,23452,757-486-0400,,
Kroger,975 Providence Square Shopping Center,Virginia Beach,VA,23464,757-495-8093,,
Kroger,1800 Republic Road,Virginia Beach,VA,23454,757-422-4271,,
Kroger,4625 Shore Drive,Virginia Beach,VA,23455,757-460-0343,,
Kroger,1050 W Mercury Boulevard,Hampton,VA,23666,757-251-0443,,
Kroger,7524 Hayes Shopping Court,Hayes,VA,23072,804-642-6101,,
Kroger,6335 Mechanicsville Turnpike,Mechanicsville,VA,23111,804-730-6832,,
Kroger,1653 Sentinel Drive,Chesapeake,VA,23320,757-389-7326,,
Kroger,309 South Battlefield Boulevard,Chesapeake,VA,23322,757-482-3377,,
Kroger,1464 Mt Pleasant Road,Chesapeake,VA,23322,757-217-4030,,
Kumasi Supermarket,14790 Build America Drive,Woodbridge,VA,22191,703-496-4796,African,
Kabul Halal Market,3143 Golansky Boulevard,Woodbridge,VA,22192,703-590-7171,Afghan,
Kundan International Grocery,627 Pilot House Drive,Newport News,VA,23606,757-595-8162,Indian,
Kelsick Specialty Market,6632 Main Street,Gloucester,VA,23061,804-693-6500,,
Lotte Plaza,490 Elden Street,Herndon,VA,20170,703-828-8310,Asian,
Lotte Plaza,5204 Port Royal Road,Springfield,VA,22151,571-419-6954,Asian,
Lotte Plaza,43930 Farmwell Hunt Plaza,Ashburn,VA,20147,703-858-2780,Asian,
Lotte Plaza,5900 Centreville Crest Lane,Centreville,VA,20121,703-543-7942,Asian,
Lotte Plaza,13955 Metrotech Drive,Chantilly,VA,20151,703-488-6600,Asian,
Lowes Food,301 S Main Street,Stuart,VA,24171,276-694-5656,,
Lidl,2070 Tacketts Village Square,Woodbridge,VA,22192,844-747-5435,,
Lidl,3500 S Clark Street,Arlington,VA,22202,844-747-5435,,
Lidl,6801 Commerce Street,Springfield,VA,22150,844-747-5435,,
Lidl,11782 Sudley Manor Drive,Manassas,VA,20109,844-747-5435,,
Lidl,16601 Dumfries Road,Dumfries,VA,22025,844-747-5435,,
Lidl,11179 Lee Highway,Fairfax,VA,22030,844-747-5435,,
Lidl,21285 Coopers Hawk Drive,Broadlands,VA,20148,844-747-5435,,
Lidl,44175 Ashbrook Marketplace Plaza,Ashburn,VA,20147,844-747-5435,,
Lidl,9274 Old Keene Mill Road,Burke,VA,22015,844-747-5435,,
Lidl,1175 Warrenton Road,Fredericksburg,VA,22406,844-747-5435,,
Lidl,5455 Plank Road,Fredericksburg,VA,22407,844-747-5435,,
Lidl,6548 Little River Turnpike,Alexandria,VA,22312,844-747-5435,,
Lidl,15169 Brandy Road,Culpeper,VA,22701,844-747-5435,,
Lidl,12151 W Broad Street,Henrico,VA,23233,844-747-5435,,
Lidl,1311 Mall Drive,Bon Air,VA,23235,844-747-5435,,
Lidl,5110 S Laburnum Avenue,Richmond,VA,23231,844-747-5435,,
Lidl,4700 W Broad Street,Richmond,VA,23230,844-747-5435,,
Lidl,3248 Holland Road,Virginia Beach,VA,23453,844-747-5435,,
Lidl,9101 Hermitage Road,Henrico,VA,23228,844-747-5435,,
Lidl,11701 Iron Bridge Road,Chester,VA,23831,844-747-5435,,
Lidl,6196 Providence Road,Virginia Beach,VA,23464,844-747-5435,,
Lidl,11880 Jefferson Avenue,Newport News,VA,23606,844-747-5435,,
Lidl,2000 W Mercury Boulevard,Hampton,VA,23666,844-747-5435,,
Lidl,6440 N Military Highway,Norfolk,VA,23518,844-747-5435,,
Lidl,1209 Edison Road,Virginia Beach,VA,23454,844-747-5435,,
Lidl,11076 Warwick Road,Newport News,VA,23601,844-747-5435,,
Lidl,1030 Independence Boulevard,Virginia Beach,VA,23455,844-747-5435,,
Lidl,4033 Portsmouth Boulevard,Chesapeake,VA,23321,844-747-5435,,
Lidl,1001 Community Drive,Suffolk,VA,23435,844-747-5435,,
Lidl,126 Piedmont Place,Danville,VA,24541,844-747-5435,,
La Miguelena Market,46950 Community Plaza,Sterling,VA,20164,703-433-2113,Latin,
Libbie Market,400 Libbie Avenue,Richmond,VA,23226,804-285-6414,,
La Vaquita Supermarket,8736 Richmond Highway,Alexandria,VA,22309,703-780-1241,Latin,
LA Mart,6711 Bland Street,Springfield,VA,22150,703-644-0072,International,
La Latina Market,7010 Commerce Street,Springfield,VA,22150,,Latin,
La Despensa Grocery,73279 Occoquan Road,Woodbridge,VA,22191,571-572-3382,Latin,
Little House Green Grocery,1227 Vellevue Avenue,Richmond,VA,23227,804-262-7474,,
Leyu Ethiopian Market,5820 Seminary Road,Falls Church,VA,22041,703-575-7671,Ethiopian,
Leila's Mediterranean Groceries & Deli,5045 Virginia Beach Boulevard,Virginia Beach,VA,23462,757-644-6912,Gourmet,
Lynn Street Market,315 Lynn Street,Danville,VA,24540,434-483-2511,,
Laxmi Palace Indian Grocery Streetore,3423 Old Parham Road,Henrico,VA,23294,804-217-7066,Indian,
La Union Grocery,4308 Lee Highway,Arlington,VA,22207,703-812-9484,Latin,
La Guadalupana Latino Market,221 Carlton Road,Charlottesville,VA,22902,434-977-5556,Latin,
La Victoria,440 W Broad Street,Waynesboro,VA,22980,540-943-2059,Latin,
La Jaliciense,115 Mt Cross Road,Danville,VA,24540,434-792-3277,Mexican,
Martin's,409 North McNeil Road,Berryville,VA,22611,540-955-1075,,
Martin's,15371 Montanus Drive,Culpeper,VA,22701,540-727-1076,,
Martin's,409 South Street,Front Royal,VA,22630,540-635-2249,,
Martin's,2035 East Market Street,Harrisonburg,VA,22801,540-442-7576,,
Martin's,10001 Hull Street Road,Richmond,VA,23236,804-745-4920,,
Martin's,7035 Three Chopt Road,Richmond,VA,23226,804-288-5263,,
Martin's,1015 Richmond Road,Staunton,VA,24401,540-885-9504,,
Martin's,240 Elizabeth Drive,Stephens City,VA,22655,540-868-0224,,
Martin's,437 Tiffany Drive,Waynesboro,VA,22980,540-942-7200,,
Martin's,1950 S Pleasant Valley Road,Winchester,VA,22601,540-665-0908,,
Martin's,200 Rivendell Court,Winchester,VA,22603,540-723-6232,,
Martin's,400 Gateway Drive,Winchester,VA,22603,540-535-0598,,
Moms,3831 Mt Vernon Avenue,Alexandria,VA,22305,703-535-5980,Organic,
Moms,1901 N Veitch Street,Arlington,VA,22201,571-354-8810,Organic,
Moms,424 Eden Street,Herndon,VA,20170,703-483-6740,Organic,
Moms,8298 Glass Alley,Fairfax,VA,22031,703-663-8810,Organic,
Moms,14470 Smoketown Road,Woodbridge,VA,22193,571-398-3043,Organic,
Mena Market,6222 Rolling Road,Springfield,VA,22152,703-354-0667,African,
Mediterranean Gourmet Market,6122 Franconia Road,Alexandria,VA,22310,703-971-7799,Gourmet,
Manila Oriental Market,7024-7026 Commerce Street,Springfield,VA,22150,703-379-0595,Filipino,
Marhaba Market,3819 S George Mason Drive,Falls Church,VA,22041,703-820-7589,Somali,
Megamart Alexandria,8228 Richmond Highway,Alexandria,VA,22309,703-799-0791,Latin,
MP International Grocery,6109 E Virginia Beach Boulevard,Norfolk,VA,23502,757-466-0220,Carribean,
Matthews Market,14141 Lankford Highway,Mappsville,VA,23407,757-824-3061,,
Maharaja Indian Grocery,3851 Springfield Road,Glen Allen,VA,23060,804-965-2723,Indian,
Madina Market Grocery,376 Elden Street,Herndon,VA,20170,703-904-7000,Halal,
New Grand Mart,6255 Little River Turnpike,Alexandria,VA,22312,703-941-1177,Asian,
Noor Market,8080 Alban Road,Springfield,VA,22150,703-337-4821,Halal,
Naz Foods,4231 Markham Street,Annandale,VA,22003,703-642-2503,Halal,
Nazret Cultural Foods,656 S Pickett Street,Alexandria,VA,22304,703-212-8909,Ethiopian,
Namaste Market,2929 Gallows Road,Falls Church,VA,22042,703-204-2929,Indian,
Natural Grocer,14453 Potomac Mills Road,Woodbridge,VA,22192,703-494-7287,Organic,
New Grand Mart,7415 Midlothian Turnpike,Richmond,VA,23225,804-675-1425,Korean,
Nick's Oriental Express Grocery,1949 Lynnhaven Parkway,Virginia Beach,VA,23453,757-471-0849,Filipino,
Organic Food Depot Grocery,4301 Commuter Drive,Virginia Beach,VA,23462,757-467-8999,Organic,
Old Dutch Supermarket,2402 N Main Street,Danville,VA,24540,434-836-0436,,
Oriental Food Market,921 S High Street,Harrisonburg,VA,22801,540-432-6157,Asian,
Oasis World Market,1411 S Main Street,Blacksburg,VA,24060,540-953-3950,International,
Piggly  Wiggly,1304 South Boston Road,Danville,VA,24540,434-793-8355,,
Piggly  Wiggly,3101 Jefferson Avenue,Newport News,VA,23607,757-223-4416,,
Piggly  Wiggly,"4630 East Princess Anne Road, Suite A",Norfolk,VA,23502,757-855-1616,,
Publix,1640 Publix Way,Stafford,VA,22554,540-288-9280,,
Publix,9601 Jefferson Davis Highway,Fredericksburg,VA,22407,540-898-6801,,
Publix,10150 Brook Road,Glen Allen,VA,23059,804-262-8190,,
Publix,5400 Wyndham Forest Drive,Glen Allen,VA,23059,804-527-5334,,
Publix,10250 Staples Mill Road,Glen Allen,VA,23060,804-755-2360,,
Publix,6603 Mechanicsville Turnpike,Mechanicsville,VA,23111,804-569-3902,,
Publix,9645 W Broad Street,Glen Allen,VA,23060,804-965-6303,,
Publix,3460 Pump Road,Henrico,VA,23233,804-364-6314,,
Publix,2250 John Rolfe Parkway,Henrico,VA,23233,804-360-4920,,
Publix,7035 Three Chopt Road,Richmond,VA,23226,804-288-1070,,
Publix,3535 Ellwood Avenue,Richmond,VA,23221,804-253-6372,,
Publix,4591 S Laburnum Avenue,Richmond,VA,23231,804-223-1915,,
Publix,7045 Forest Hill Avenue,Richmond,VA,23225,804-323-4110,,
Publix,2015 Huguenot Road,North Chesterfield,VA,23235,804-330-3704,,
Publix,200 Charter Colony Parkway,Midlothian,VA,23114,804-378-3222,,
Publix,13700 Hull Street Road,Midlothian,VA,23112,804-739-1160,,
Publix,7200 Cosby Village Road,Chesterfield,VA,23832,804-639-6525,,
Publix,4660 Monticello Avenue,Williamsburg,VA,23188,757-564-5902,,
Publix,3007 Boulevard,Colonial Heights,VA,23834,804-520-4520,,
Polish Market,431 Maple Avenue W,Vienna,VA,22180,703-261-3485,Polish,
Patel Brothers,43761 Parkhurst Plaza,Ashburn,VA,20147,276-579-1030,Indian,
Patel Brothers,11116 Lee Highway,Fairfax,VA,22030,703-273-7400,Indian,
Plaza Latina Market,2190 Pimmit Drive N,Falls Church,VA,22043,703-748-1500,Latin,
Pho Supplies,3435 Carlin Springs Road,Bailey's Crossroads,VA,22041,703-532-4030,Vietnamese,
Randolph Market,300 N 6th Avenue,Hopewell,VA,23860,804-458-8543,,
Rico Supermarket,7849 Richmond Highway,Alexandria,VA,22306,703-360-4343,Latin,
Russian Gourmet,9980 Main Street,Fairfax,VA,22031,703-537-0858,Russian,
Ruz Uz,1000 N Randolph Street,Arlington,VA,22201,703-389-6208,Russian,
Royal Bazaar Indian Asian Market,415 N Military Highway,Norfolk,VA,23502,757-455-0700,Indian,
Sharp Shopper,2475-A South Main Street,Harrisonburg,VA,22801,540-434-8848,Discount,
Sharp Shopper,2800 A West Main Street,Waynesboro,VA,22980,540-942-0975,Discount,
Sharp Shopper,802 Berryville Avenue,Winchester,VA,22601,540-450-1566,Discount,
Sprouts,494 Elden Street,Herndon,VA,20170,703-480-7930,Organic,
Shoppers Food,7660 Richmond Highway,Alexandria,VA,22306,703-765-5014,,
Shoppers Food,4174 Fortuna Center Plaza,Dumfries,VA,22025,703-580-1164,,
Shoppers Food,9622 Main Street,Fairfax,VA,22031,703-978-1256,,
Shoppers Food,1505 Stafford Market Place,Stafford,VA,22554,540-288-3182,,
Safeway,1624 Belle View,Alexandria,VA,22307,703-765-3434,,
Safeway,299 S Van Dorn Street,Alexandria,VA,22304,703-751-4827,,
Safeway,3526 King Street,Alexandria,VA,22302,571-312-0029,,
Safeway,500 S Royal Street,Alexandria,VA,22314,703-836-0380,,
Safeway,5980 Kingstowne Towne Center,Alexandria,VA,22315,703-921-3125,,
Safeway,6130 Rose Hill Drive,Alexandria,VA,22310,703-313-8800,,
Safeway,7900 Fort Hunt Road,Alexandria,VA,22308,703-765-0924,,
Safeway,8646 Richmond Highway,Alexandria,VA,22309,703-780-3646,,
Safeway,7414 Little River Turnpike,Annandale,VA,22003,703-941-3874,,
Safeway,1525 Wilson Boulevard,Arlington,VA,22209,703-276-9315,,
Safeway,2500 N Harrison Street,Arlington,VA,22207,703-538-6700,,
Safeway,3713 Lee Highway,Arlington,VA,22207,703-841-1155,,
Safeway,5101 Wilson Boulevard,Arlington,VA,22205,703-524-1528,,
Safeway,12821 Braemar Village Plaza,Bristow,VA,20136,703-257-0153,,
Safeway,5727 Burke Centre Parkway,Burke,VA,22015,703-323-8784,,
Safeway,9596 Old Keene Mill Road,Burke,VA,22015,703-440-1341,,
Safeway,309 Southgate Shopping Center,Culpeper,VA,22701,540-825-8337,,
Safeway,4215 Cheshire Station Plaza,Dale City,VA,22193,703-590-5530,,
Safeway,10350 Willard Way,Fairfax,VA,22030,703-591-8473,,
Safeway,12200 Fairfax Towne Center,Fairfax,VA,22033,703-359-0523,,
Safeway,3043 Nutley Street,Fairfax,VA,22031,703-269-2241,,
Safeway,9525 Braddock Road,Fairfax,VA,22032,703-978-4604,,
Safeway,6118 Arlington Boulevard,Falls Church,VA,22044,703-531-0030,,
Safeway,7397 Lee Highway,Falls Church,VA,22042,703-573-2057,,
Safeway,9881 Georgetown Pike,Great Falls,VA,22066,703-759-3802,,
Safeway,413 Elden Street,Herndon,VA,20170,571-262-2968,,
Safeway,437 S King Street,Leesburg,VA,20175,703-777-5833,,
Safeway,1330 Chain Bridge Road,McLean,VA,22101,703-356-6118,,
Safeway,1688 Anderson Road,McLean,VA,22102,703-343-1000,,
Safeway,6244 Old Dominion Drive,McLean,VA,22101,703-538-6539,,
Safeway,12 W Washington Street,Middleburg,VA,20117,540-687-6401,,
Safeway,11120 S Lakes Drive,Reston,VA,20191,703-620-3400,,
Safeway,2304 Hunter's Woods Plaza,Reston,VA,20191,703-716-4193,,
Safeway,22350 S Sterling Boulevard,Sterling,VA,20164,703-948-1080,,
Safeway,30 Pidgeon Hill Drive,Sterling,VA,20165,703-430-1192,,
Safeway,189 W Lee Highway,Warrenton,VA,20186,540-347-7909,,
Safeway,2205 Old Bridge Road,Woodbridge,VA,22192,703-494-8858,,
Safeway,4240 Merchant Plaza,Woodbridge,VA,22192,703-590-1057,,
Sams Club,1455 Towne Square Boulevard,Roanoke,VA,24012,540-563-2620,Wholesale,Yes
Sams Club,601 Commerce Drive,Bluefield,VA,24605,276-326-1583,Wholesale,Yes
Sams Club,3912 Wards Road,Lynchburg,VA,24502,434-237-5234,Wholesale,Yes
Sams Club,215 Piedmont Place,Danville,VA,24541,434-797-3029,Wholesale,Yes
Sams Club,14050 Worth Avenue,Woodbridge,VA,22192,703-491-2662,Wholesale,Yes
Sams Club,45425 Dulles Crossing Plaza,Sterling,VA,20166,571-434-8711,Wholesale,Yes
Sams Club,9440 W Broad Street,Richmond,VA,23294,804-346-3031,Wholesale,Yes
Sams Club,970 Hilton Heights Road,Charlottesville,VA,22901,434-978-2122,Wholesale,Yes
Sams Club,901 Wal-mart Way,Midlothian,VA,23113,804-378-7654,Wholesale,Yes
Sams Club,735 South Park Boulevard,Colonial Heights,VA,23834,804-520-0508,Wholesale,Yes
Sams Club,12407 Jefferson Avenue,Newport News,VA,23602,757-875-0243,Wholesale,Yes
Sams Club,2444 Chesapeake Square Ring Road,Chesapeake,VA,23321,757-465-0082,Wholesale,Yes
Sams Club,1501 Sam's Circle,Chesapeake,VA,23320,757-436-7119,Wholesale,Yes
Sams Club,3345 Virginia Beach Boulevard,Virginia Beach,VA,23452,757-631-9791,Wholesale,Yes
Sams Club,13249 Lee Highway,Bristol,VA,24202,276-466-7390,Wholesale,Yes
Save A Lot,2314 E Little Creek Road,Norfolk,VA,23518,757-583-3476,Discount,
Save A Lot,5836 Main Street,Mt Jackson,VA,22842,540-477-3318,Discount,
Save A Lot,441 E Belt Boulevard,Richmond,VA,23224,804-231-6890,Discount,
Save A Lot,3808 Mechanicsville Turnpike,Richmond,VA,23223,804-329-0658,Discount,
Save A Lot,2001-2003 S Crater Road,Petersburg,VA,23805,804-733-8609,Discount,
Save A Lot,206 Cavalier Square,Hopewell,VA,23860,804-541-1879,Discount,
Save A Lot,4902 W Mercury Boulevard,Hampton,VA,23666,757-838-4505,Discount,
Save A Lot,14339 Warwick Boulevard,Newport News,VA,23602,757-874-5148,Discount,
Save A Lot,13413 Riverside Drive,Oakwood,VA,24631,276-498-4936,Discount,
Save A Lot,102 US-58,Pennington Gap,VA,24277,276-546-4780,Discount,
Save A Lot,1718 E Main Street,Lebanon,VA,24266,276-889-5104,Discount,
Shri Krishna Grocery,7106 Brookfield Plaza,Springfield,VA,22150,703-569-8885,Indian,
Supermarket Fiesta,9100 Mathis Avenue,Manassas,VA,20110,703-393-1333,Latin,
Sepho's,2830 Garber Way,Woodbridge,VA,22192,703-910-4187,Halal,
Super Mini Mart,8792 Sacramento Drive,Alexandria,VA,22309,703-799-2640,,
Streets Market & Cafe,3108 Mt Vernon Avenue,Alexandria,VA,22305,571-431-6810,,
Stella's Grocery,1007 Lafayette Street,Richmond,VA,23221,804-357-0020,,
Sandbridge Seaside Market,209 Sandbridge Road,Virginia Beach,VA,23456,757-426-6594,,
Sunshine Grocery & Halal Meat,45633 Dulles Eastern Plaza,Sterling,VA,20166,703-828-6580,Halal,
Super A Market,2800 Graham Road,Falls Church,VA,22042,703-280-0440,International,
Sultan Gourmet Market,10560 Warwick Avenue,Fairfax,VA,22030,703-278-8111,Turkish,
Strawberry Street Market,415 Strawberry Street,Richmond,VA,23220,(804) 353-4100,,
Shields Market,206 N Shields Avenue,Richmond,VA,23220,(804) 353-9880,,
Trolley Market,1614 W Main Street,Richmond,VA,23220,(804) 342-9000,,
The Fresh Market,3680 King Street,Alexandria,VA,22302,703-824-5205,,
The Fresh Market,3901 Old Forest Road,Lynchburg,VA,24501,434-385-4202,,
The Fresh Market,4600 Commonwealth Centre Parkway,Midlothian,VA,23112,804-744-7535,,
The Fresh Market,1200 Huguenot Road,Midlothian,VA,23113,804-897-0300,,
The Fresh Market,12131 Jefferson Avenue,Newport News,VA,23602,757-269-0034,,
The Fresh Market,924 W 21st Street,Norfolk,VA,23517,757-623-3291,,
The Fresh Market,10 N Nansemond Street,Richmond,VA,23221,804-355-3190,,
The Fresh Market,1527 N Parham Road,Richmond,VA,23229,804-282-3823,,
The Fresh Market,2207 Colonial Avenue SW,Roanoke,VA,24015,540-344-5490,,
The Fresh Market,150 Branch Road SE,Vienna,VA,22180,703-242-8923,,
The Fresh Market,4588 Virginia Beach Boulevard,Virginia Beach,VA,23462,757-687-3280,,
The Fresh Market,744 Hilltop North Shopping Center,Virginia Beach,VA,23451,757-491-0904,,
The Fresh Market,5231 Monticello Avenue,Williamsburg,VA,23188,757-565-1661,,
Trader Joes,2025 Bond Street,Charlottesville,VA,22901,434-974-1466,,
Trader Joes,11331 W Broad Street,Glen Allen,VA,23060,804-360-4098,,
Trader Joes,14100 Lee Highway,Centreville,VA,20120,703-815-0697,,
Trader Joes,3000 Stony Point Road,Richmond,VA,23235,804-323-4292,,
Trader Joes,44755 Brimfield Drive,Ashburg,VA,20147,703-858-5993,,
Trader Joes,11958 Killingsworth Avenue,Reston,VA,20194,703-689-0865,,
Trader Joes,9464 Main Street,Fairfax,VA,22031,703-764-8550,,
Trader Joes,6394 Springfield Plaza,Springfield,VA,22150,703-569-9301,,
Trader Joes,7514 Leesburg Turnpike,Falls Church,VA,22043,703-288-0566,,
Trader Joes,5847 Leesburg Pike,Bailey's Crossroads,VA,22041,703-379-5883,,
Trader Joes,1109 N Highland Street,Arlington,VA,22201,703-351-8015,,
Trader Joes,612 N Saint Asaph Street,Alexandria,VA,22314,703-548-0611,,
Trader Joes,5000 Settlers Market Boulevard,Williamsburg,VA,23188,757-259-2135,,
Trader Joes,12551 Jefferson Avenue,Newport News,VA,23602,757-890-0235,,
Todos Supermarket,17987 Dumfries Shopping Plaza,Dumfries,VA,22026,703-221-1675,Latin,
Thai Shop,7069 Brookfield Plaza,Springfield,VA,22150,703-912-3164,Asian,
Taj Groceries,144004 Chantilly Crossing Lane,Chantilly,VA,20151,571-376-5858,Indian,
Turkuaz Mediterranean Market,10928 Bulloch Drive,Manassas,VA,20109,703-369-3600,Turkish,
Turmeric Zone,21770 Beaumeade Circle,Ashburn,VA,20147,703-829-6570,Indian,
The Market at 25th,1330 N 25th Street,Richmond,VA,23223,804-396-2239,,
Tienda La Tapatia,5033 Virginia Beach Boulevard,Virginia Beach,VA,23462,757-807-2945,Latin,
Tan A Supermarket,6221 W Broad Street,Richmond,VA,23230,804-285-3569,Asian,
The Grocer,621 Townside Road SW,Roanoke,VA,24014,540-981-0888,Indian,
Tokyo Market,2820 W Cary Street,Richmond,VA,23221,804-353-2078,Japanese,
Tienda Latina Emily,510 Peppers Ferry Road NW,Christiansburg,VA,24073,540-381-0737,Latin,
Tienda Y Carniceria Latina La Preferida,4720 Williamson Road,Roanoke,VA,24012,540-366-2439,Latin,
T & M Grocery & Deli,12178 Fancy Gap Highway,Cana,VA,24317,276-755-3601,,
Target,6600 Frontier Drive,Springfield,VA,22150,703-921-0220,,
Target,6100 Arlington Boulevard,Falls Church,VA,22044,703-237-8118,,
Target,2460 Prince William Parkway,Woodbridge,VA,22192,703-490-3242,,
Target,10301 New Guinea Road,Fairfax,VA,22032,703-764-5100,,
Target,6600 Richmond Highway,Alexandria,VA,22306,703-253-0018,,
Target,2905 District Avenue S,Fairfax,VA,22031,571-533-3751,,
Target,3101 Richmond Highway,Alexandria,VA,22305,703-706-3840,,
Target,5115 Leesburg Pike,Falls Church,VA,22041,703-253-0021,,
Target,500 S Washington Street,Falls Church,VA,22046,703-343-4956,,
Target,13047 Fair Lakes Shopping Center,Fairfax,VA,22033,703-449-7100,,
Target,14391 Chantilly Crossing Lane,Chantilly,VA,20151,571-262-0020,,
Target,4310 Fortuna Center Plaza,Dumfries,VA,22025,703-586-6132,,
Target,1500 Wilson Boulevard,Rosslyn,VA,22209,571-777-2438,,
Target,45130 Columbia Pike,Sterling,VA,20166,703-463-2008,,
Target,9900 Sowder Village Square,Manassas,VA,20109,703-257-6969,,
Target,13301 Gateway Center Drive,Gainesville,VA,20155,571-261-5052,,
Target,12197 Sunset Hills Road,Reston,VA,20190,703-478-0770,,
Target,46201 Potomac Run Plaza,Sterling,VA,20164,703-444-8440,,
Target,1090 Stafford Market Plaza,Stafford,VA,22556,540-659-9901,,
Target,1200 Edwards Ferry Road NE,Leesburg,VA,20176,703-777-8730,,
Target,1180 Carl D Silver Parkway,Fredericksburg,VA,22401,540-786-6800,,
Target,9785 Jefferson Davis Highway,Fredericksburg,VA,22407,540-834-1440,,
Target,10 Crooked Run Plaza,Front Royal,VA,22630,540-631-3290,,
Target,15341 Montanus Drive,Culpeper,VA,22701,540-829-6613,,
Target,740 N Glebe Road,Arlington,VA,22203,703-682-9584,,
Target,10100 Brook Road,Glen Allen,VA,23059,804-262-2390,,
Target,191 Market Street,Winchester,VA,22603,540-545-4960,,
Target,2340 Legge Boulevard,Winchester,VA,22601,540-535-0220,,
Target,5401 W Broad Street,Richmond,VA,23230,804-285-3492,,
Target,312 Connor Drive,Charlottesville,VA,22911,434-964-0231,,
Target,11290 W Broad Street,Glen Allen,VA,23060,804-360-8900,,
Target,525 First Colonial Road,Virginia Beach,VA,23451,757-428-0233,,
Target,9001 Staples Mill Road,Henrico,VA,23228,804-672-5347,,
Target,7107 Forest Hill Avenue,Richmond,VA,23225,804-330-7365,,
Target,4554 Virginia Beach Boulevard,Virginia Beach,VA,23462,757-451-7660,,
Target,201 Perimeter Drive,Midlothian,VA,23113,804-419-8140,,
Target,4630 Monticello Avenue,Williamsburg,VA,23188,757-258-9794,,
Target,2060 S Independence Boulevard,Virginia Beach,VA,23453,757-416-1719,,
Target,4521 S Laburnum Avenue,Richmond,VA,23231,804-836-1860,,
Target,11301 Midlothian Turnpike,Richmond,VA,23235,804-897-5711,,
Target,4601 Commonwealth Centre Parkway,Midlothian,VA,23112,804-639-0580,,
Target,2233 Upton Drive,Virginia Beach,VA,23454,757-430-5100,,
Target,2530 Weir Road,Chester,VA,23831,804-768-9974,,
Target,200 Marquis Parkway,Williamsburg,VA,23185,757-259-3020,,
Target,1995 E Market Street,Harrisonburg,VA,22801,540-432-1708,,
Target,811 Town Center Drive,Waynesboro,VA,22980,540-941-2280,,
Target,7235 Bell Creek Road,Mechanicsville,VA,23111,804-559-5802,,
Target,721 Southpark Boulevard,Colonial Heights,VA,23834,804-520-0190,,
Target,12130 Jefferson Avenue,Newport News,VA,23602,757-882-8700,,
Target,5001 Holt Avenue,Hampton,VA,23666,757-951-2300,,
Target,4028 Wards Road,Lynchburg,VA,24502,434-239-6163,,
Target,1245 N Military Highway,Norfolk,VA,23502,757-461-9369,,
Target,1316 Greenbrier Parkway,Chesapeake,VA,23320,757-547-1842,,
Target,4200 Portsmouth Boulevard,Chesapeake,VA,23321,757-465-8400,,
Target,233 Carmichael Way,Chesapeake,VA,23322,757-421-6640,,
Target,4737 Valley View Boulevard NW,Roanoke,VA,24012,540-265-6932,,
Target,195 Conston Avenue NW,Christiansburg,VA,24073,540-381-9459,,
Target,155 Holt Garrison Parkway,Danville,VA,24540,434-799-9950,,
Target,16600 Highlands Center Boulevard,Bristol,VA,24202,276-642-6300,,
Uncle's Farm Korean Mart,13633 Warwick Boulevard,Newport News,VA,23602,757-833-6048,Korean,
Vietnam Supermarket,6609 Wilson Boulevard,Falls Church,VA,22044,703-241-0262,Vietnamese,
Veracruz Latin Streetore,5622 East Va  Beach Boulevard,Norfolk,VA,23502,757-822-9906,Latin,
Wegmans,7905 Hilltop Village Center Drive,Alexandria,VA,22315,571-527-2400,,
Wegmans,14361 Newbrook Drive,Chantilly,VA,20151,571-525-5525,,
Wegmans,100 Wegmans Way,Charlottesville,VA,22902,434-529-3200,,
Wegmans,45131 Columbia Place,Sterling,VA,20166,703-421-2400,,
Wegmans,11620 Monument Drive,Fairfax,VA,22030,703-653-1600,,
Wegmans,2281 Carl D Silver Parkway,Fredericksburg,VA,22401,540-322-4800,,
Wegmans,8297 Stonewall Shops Square,Gainesville,VA,20155,571-222-2300,,
Wegmans,101 Crosstrail Boulevard SE,Leesburg,VA,20175,703-669-2044,,
Wegmans,12501 Stone Village Way,Midlothian,VA,23113,804-419-9900,,
Wegmans,14801 Dining Way,Woodbridge,VA,22191,703-763-5500,,
Wegmans,12200 Wegmans Boulevard,Henrico,VA,23233,804-377-4100,,
Wegmans,1835 Capital One Drive South,Tysons,VA,22102,571-423-0700,,
Wegmans,4721 Virginia Beach Boulevard,Virginia Beach,VA,23462,757-271-0500,,
Whole Foods,8402 Old Keene Mill Road,Springfield,VA,22152,703-644-2500,,
Whole Foods,1700 Duke Street,Alexandria,VA,22314,703-706-0891,,
Whole Foods,7511 Leesburg Pike,Falls Church,VA,22043,703-448-1600,,
Whole Foods,143 Maple Avenue E,Vienna,VA,22180,703-319-2000,,
Whole Foods,4501 Market Commons Drive,Fairfax,VA,22033,703-222-2058,,
Whole Foods,1635 Boro Place,McLean,VA,22102,571-634-3610,,
Whole Foods,2700 Wilson Boulevard,Arlington,VA,22201,703-527-6596,,
Whole Foods,520 12th Street South,Arlington,VA,22202,571-777-3948,,
Whole Foods,11660 Plaza America Drive,Reston,VA,20190,703-736-0600,,
Whole Foods,19800 Belmont Chase Drive,Ashburn,VA,20147,571-223-4440,,
Whole Foods,1797 Hydraulic Road,Charlottesville,VA,22901,434-973-4900,,
Whole Foods,11173 W Broad Street,Glen Allen,VA,23060,804-364-4050,,
Whole Foods,12090 Jefferson Avenue,Newport News,VA,23606,757-947-2460,,
Whole Foods,1800 Laskin Road,Virginia Beach,VA,23454,757-422-0444,,
Whole Foods,2024 W Broad Street,Richmond,VA,23220,804-956-3750,,
Weis Markets,2612 Jefferson Davis Highway,Stafford,VA,22554,540-720-6521,,
Weis Markets,905 Garrisonville Road,Stafford,VA,22554,540-720-4692,,
Weis Markets,282 Deacon Road,Fredericksburg,VA,22405,540-371-3258,,
Weis Markets,4153 Plank Road,Fredericksburg,VA,22401,540-786-5122,,
Weis Markets,10871 Tidewater Trail,Fredericksburg,VA,22408,540-361-2618,,
Weis Markets,10601 Spotsylvania Avenue,Fredericksburg,VA,22405,540-891-4260,,
Weis Markets,7100 Salem Fields Boulevard,Fredericksburg,VA,22407,540785-5898,,
Weis Markets,9801 Courthouse Road,Spotsylvania,VA,22553,540-891-0784,,
Weis Markets,505 Meadowbrook Shopping Center,Culpeper,VA,22701,540-825-9448,,
Weis Markets,540 Culpeper Town Square,Culpeper,VA,22701,540-829-2376,,
Weis Markets,736 Warrenton Road,Fredericksburg,VA,22406,540-371-1197,,
Weyone International,510 S Van Dorn Street,Alexandria,VA,22304,703-567-4347,African,
Woodbridge International Market,14350 Jefferson Davis Highway,Woodbridge,VA,22191,703-491-9291,African,
Wakefield Great Valu,608 S County Drive,Wakefield,VA,23888,757-899-5555,,
Walmart Supercenter,16032 Fifteen Mile Boulevard,Abingdon,VA,24211,276-619-4843,,
Walmart Supercenter,6303 Richmond Highway,Alexandria,VA,22306,703-253-9901,,
Walmart Supercenter,125 Clarion Road,Altavista,VA,24517,434-309-2245,,
Walmart Supercenter,505 Oakville Road,Appomattox,VA,24522,434-352-6066,,
Walmart Neighborhood Market,9714 Sliding Hill Road,Ashland,VA,23005,804-537-3003,,
Walmart Supercenter,145 Hill Carter Parkway,Ashland,VA,23005,804-798-2511,,
Walmart Supercenter,1126 E Lynchburg Salem Turnpike,Bedford,VA,24523,540-586-6176,,
Walmart Supercenter,1451 S Main Street,Blackstone,VA,23824,434-292-5898,,
Walmart Supercenter,4001 College Avenue,Bluefield,VA,24605,276-322-3144,,
Walmart Supercenter,13245 Lee Highway,Bristol,VA,24202,276-466-0290,,
Walmart Supercenter,4368 Chantilly Shopping Center Drive,Chantilly,VA,20151,571-392-3081,,
Walmart Supercenter,975 Hilton Heights Road,Charlottesville,VA,22901,434-973-1412,,
Walmart Neighborhood Market,475 Kempsville Road,Chesapeake,VA,23320,757-447-9223,,
Walmart Supercenter,2448 Chesapeake Square Ring Road,Chesapeake,VA,23321,757-488-6098,,
Walmart Supercenter,201 Hillcrest Parkway,Chesapeake,VA,23322,757-421-3689,,
Walmart Supercenter,1521 Sams Circle,Chesapeake,VA,23320,757-436-6055,,
Walmart Supercenter,632 Grassfield Parkway,Chesapeake,VA,23322,757-312-8309,,
Walmart Neighborhood Market,673 Cedar Road,Chesapeake,VA,23322,757-447-5798,,
Walmart Supercenter,12000 Iron Bridge Road,Chester,VA,23831,804-768-0060,,
Walmart Supercenter,14501 Hancock Village Street,Chesterfield,VA,23832,804-739-2119,,
Walmart Supercenter,2400 N Franklin Street,Christiansburg,VA,24073,540-381-3705,,
Walmart Supercenter,671 Southpark Boulevard,Colonial Heights,VA,23834,804-526-0844,,
Walmart Supercenter,313 Thacker Avenue,Covington,VA,24426,540-962-6670,,
Walmart Supercenter,801 James Madison Highway,Culpeper,VA,22701,540-825-2723,,
Walmart Supercenter,515 Mount Cross Road,Danville,VA,24540,434-799-6902,,
Walmart Neighborhood Market,211 Nor Dan Drive,Danville,VA,24540,434-441-4253,,
Walmart Supercenter,5225 Alexander Road,Dublin,VA,24084,540-674-5385,,
Walmart Supercenter,24635 Dulles Landing Drive,Dulles,VA,20166,571-367-3036,,
Walmart Supercenter,17041 Jefferson Davis Highway,Dumfries,VA,22026,703-221-4116,,
Walmart Supercenter,308 Market Drive,Emporia,VA,23847,434-336-9269,,
Walmart Supercenter,13059 Fair Lakes Parkway,Fairfax,VA,22033,703-631-9450,,
Walmart Supercenter,11181 Lee Highway,Fairfax,VA,22030,703-995-5061,,
Walmart Supercenter,1800 Peery Drive,Farmville,VA,23901,434-392-5334,,
Walmart Neighborhood Market,16807 Forest Road,Forest,VA,24551,434-209-6041,,
Walmart Supercenter,1500 Armory Drive,Franklin,VA,23851,757-562-6776,,
Walmart Supercenter,1800 Carl D Silver Parkway,Fredericksburg,VA,22401,540-786-2090,,
Walmart Supercenter,11 Village Parkway,Fredericksburg,VA,22406,540-752-2125,,
Walmart Supercenter,123 Washington Square Plaza,Fredericksburg,VA,22405,540-899-8890,,
Walmart Supercenter,1000 Southpoint Parkway,Fredericksburg,VA,22407,540-834-4142,,
Walmart Supercenter,10 Riverton Commons Drive,Front Royal,VA,22630,540-635-4140,,
Walmart Supercenter,1140 E Stuart Drive,Galax,VA,24333,276-236-7113,,
Walmart Supercenter,11400 W Broad Street,Glen Allen,VA,23060,804-360-9777,,
Walmart Supercenter,6819 Walton Lane,Gloucester,VA,23061,804-694-0110,,
Walmart Supercenter,164 Camp Creek Parkway,Gordonsville,VA,22942,540-832-1259,,
Walmart Supercenter,1179 Riverview Street,Grundy,VA,24614,276-244-3007,,
Walmart Neighborhood Market,117 Marketplace Drive,Hampton,VA,23666,757-637-4861,,
Walmart Supercenter,1900 Cunningham Drive,Hampton,VA,23666,757-826-6377,,
Walmart Supercenter,171 Burgess Road,Harrisonburg,VA,22801,540-433-0808,,
Walmart Supercenter,2160 Jon Wayland Highway,Harrisonburg,VA,22801,540-438-0349,,
Walmart Supercenter,6530 Trading Square,Haymarket,VA,20169,703-468-2445,,
Walmart Supercenter,5001 Nine Mile Road,Henrico,VA,23223,804-253-1528,,
Walmart Supercenter,468 Trade Center Lane,Jonesville,VA,24263,276-346-2860,,
Walmart Supercenter,200 Old Fairgrounds Way,Kilmarnock,VA,22482,804-435-6148,,
Walmart Supercenter,16375 Merchant Lane,King George,VA,22485,540-413-3037,,
Walmart Supercenter,1050 Regional Park Road,Lebanon,VA,24266,276-889-1654,,
Walmart Supercenter,19360 Compass Creek Parkway,Leesburg,VA,20175,703-779-0102,,
Walmart Supercenter,1233 N Lee Highway,Lexington,VA,24450,540-464-3535,,
Walmart Supercenter,2533 Germanna Highway,Locust Grove,VA,22508,540-317-2185,,
Walmart Supercenter,1036 US Highway 211 W,Luray,VA,22835,540-743-4111,,
Walmart Supercenter,3900 Wards Road,Lynchburg,VA,24502,434-832-0304,,
Walmart Supercenter,3227 Old Forest Road,Lynchburg,VA,24501,434-200-9132,,
Walmart Neighborhood Market,22088 Timberlake Road,Lynchburg,VA,24502,434-439-3142,,
Walmart Supercenter,197 Madison Heights Square,Madison Heights,VA,24572,434-846-9650,,
Walmart Supercenter,8386 Sudley Road,Manassas,VA,20109,703-330-5253,,
Walmart Supercenter,9401 Liberia Avenue,Manassas,VA,20110,703-257-0403,,
Walmart Supercenter,976 Commonwealth Boulevard,Martinsville,VA,24112,276-634-5110,,
Walmart Supercenter,7430 Bell Creek Road,Mechanicsville,VA,23111,804-730-8877,,
Walmart Supercenter,900 Walmart Way,Midlothian,VA,23113,804-378-9001,,
Walmart Supercenter,12200 Chattanooga Plaza,Midlothian,VA,23112,804-744-8437,,
Walmart Supercenter,12401 Jefferson Avenue,Newport News,VA,23602,757-874-4434,,
Walmart Supercenter,6111 Jefferson Avenue,Newport News,VA,23605,757-637-4205,,
Walmart Neighborhood Market,11214 Jefferson Avenue,Newport News,VA,23601,757-327-7473,,
Walmart Neighborhood Market,1720 E Little Creek Road,Norfolk,VA,23518,757-480-0654,,
Walmart Neighborhood Market,3350 E Princess Anne Road,Norfolk,VA,23502,757-216-0632,,
Walmart Supercenter,1170 N Military Highway,Norfolk,VA,23502,757-461-6330,,
Walmart Supercenter,7530 Tidewater Drive,Norfolk,VA,23505,757-480-0587,,
Walmart Neighborhood Market,5700 Hopkins Road,North Chesterfield,VA,23234,804-253-0445,,
Walmart Supercenter,780 Commonwealth Drive,Norton,VA,24273,276-679-7327,,
Walmart Supercenter,26036 Lankford Highway,Onley,VA,23418,757-302-4089,,
Walmart Supercenter,160 Kinter Way,Pearisburg,VA,24134,540-921-1204,,
Walmart Supercenter,3500 S Crater Road,Petersburg,VA,23805,804-957-6444,,
Walmart Supercenter,1098 Frederick Boulevard,Portsmouth,VA,23707,757-399-1795,,
Walmart Supercenter,13320 G.c. Peery Highway,Pounding Mill,VA,24637,276-596-9706,,
Walmart Supercenter,1950 Anderson Highway,Powhatan,VA,23139,804-464-9887,,
Walmart Supercenter,7373 Peppers Ferry Boulevard,Radford,VA,24141,540-731-3378,,
Walmart Supercenter,2410 Sheila Lane,Richmond,VA,23225,804-320-6991,,
Walmart Supercenter,6920 Forest Avenue,Richmond,VA,23230,804-774-2236,,
Walmart Supercenter,7901 Brook Road,Richmond,VA,23227,804-553-8432,,
Walmart Supercenter,1504 N Parham Road,Richmond,VA,23229,804-270-6034,,
Walmart Neighborhood Market,5221 Brook Road,Richmond,VA,23227,804-266-4768,,
Walmart Neighborhood Market,2141 Dale Avenue,Roanoke,VA,24013,540-613-6644,,
Walmart Neighborhood Market,4950 Plantation Road,Roanoke,VA,24019,540-283-5101,,
Walmart Supercenter,5350 Clearbrook Village Lane,Roanoke,VA,24014,540-772-3892,,
Walmart Supercenter,4807 Valley View Boulevard NW,Roanoke,VA,24012,540-265-5600,,
Walmart Supercenter,4524 Challenger Avenue,Roanoke,VA,24012,540-977-3945,,
Walmart Neighborhood Market,1942 Port Republic Road,Rockingham,VA,22801,540-282-6951,,
Walmart Supercenter,550 Old Franklin Turnpike,Rocky Mount,VA,24151,540-484-1002,,
Walmart Supercenter,135 Stoneridge Drive,Ruckersville,VA,22968,434-990-6018,,
Walmart Supercenter,1851 W Main Street,Salem,VA,24153,540-375-2919,,
Walmart Supercenter,3471 Old Halifax Road,South Boston,VA,24592,434-575-0680,,
Walmart Supercenter,315 Furr Street,South Hill,VA,23970,434-447-3610,,
Walmart Supercenter,217 Garrisonville Road,Stafford,VA,22554,540-720-0059,,
Walmart Neighborhood Market,14 N Stafford Complex Center,Stafford,VA,22556,540-602-6125,,
Walmart Supercenter,1028 Richmond Avenue,Staunton,VA,24401,540-886-8566,,
Walmart Supercenter,45415 Dulles Crossing Plaza,Sterling,VA,20166,571-434-9434,,
Walmart Supercenter,19265 Jeb Stuart Highway,Stuart,VA,24171,276-694-2520,,
Walmart Supercenter,1200 N Main Street,Suffolk,VA,23434,757-925-0224,,
Walmart Supercenter,6529 College Drive,Suffolk,VA,23435,757-483-8860,,
Walmart Supercenter,1660 Tappahannock Boulevard,Tappahannock,VA,22560,804-443-1188,,
Walmart Supercenter,375 S Main Street,Timberville,VA,22853,540-896-0212,,
Walmart Supercenter,1500 Cornerside Boulevard,Vienna,VA,22182,571-623-3300,,
Walmart Supercenter,657 Phoenix Drive,Virginia Beach,VA,23452,757-498-9633,,
Walmart Supercenter,2021 Lynnhaven Parkway,Virginia Beach,VA,23456,757-416-3480,,
Walmart Supercenter,1149 Nimmo Parkway,Virginia Beach,VA,23456,757-430-1836,,
Walmart Supercenter,4821 Virginia Beach Boulevard,Virginia Beach,VA,23462,757-278-2004,,
Walmart Supercenter,546 First Colonial Road,Virginia Beach,VA,23451,757-364-7416,,
Walmart Neighborhood Market,3201 Holland Road,Virginia Beach,VA,23453,757-821-7674,,
Walmart Neighborhood Market,1832 Kempsville Road,Virginia Beach,VA,23464,757-278-2566,,
Walmart Supercenter,700 James Madison Highway,Warrenton,VA,20186,540-341-3568,,
Walmart Supercenter,116 Lucy Lane,Waynesboro,VA,22980,540-932-2500,,
Walmart Neighborhood Market,1211 W Broad Street,Waynesboro,VA,22980,540-943-4087,,
Walmart Neighborhood Market,4670 Casey Boulevard,Williamsburg,VA,23188,757-603-4600,,
Walmart Supercenter,731 E Rochambeau Drive,Williamsburg,VA,23188,757-220-2772,,
Walmart Supercenter,2350 S Pleasant Valley Road,Winchester,VA,22601,540-667-9111,,
Walmart Supercenter,501 Wal Mart Drive,Winchester,VA,22603,540-545-8730,,
Walmart Supercenter,201 Maranto Manor Drive,Winchester,VA,22602,540-868-5076,,
Walmart Supercenter,14000 Worth Avenue,Woodbridge,VA,22192,703-497-2590,,
Walmart Supercenter,461 W Reservoir Road,Woodstock,VA,22664,540-459-9229,,
Walmart Supercenter,345 Commonwealth Drive,Wytheville,VA,24382,276-228-2190,,
Walmart Supercenter,2601 George Washington Memorial Highway,Yorktown,VA,23693,757-867-8004,,
Yoders Country Market,2105 S Seminole Trail,Madison,VA,27727,540-948-3000,,